DW_LOCALIDADE;address_number;region_code;division;customer_address_1;city;country;state;region_name;division_name
68788fc5e01cef37c746030c8b36d79dec4f961eefb6b5de85aceba5de54d0a7;10027583;4;2;Attention: Charlene Hoyer;Morton;US;IL;Central;Domestic
2c7dbed2194fb0d3d86c5ef355bde99adaa29e001c710fdf9dd999bd2d981158;10004602;5;1;nao informado;nao informado;nao informado;nao informado;International;International
1dfe3cd81c7e8dffe912a3e0eb90f14e8f289f8fd6e43912a99228751bc3849c;10025495;2;2;PO Box 100603;Birmingham;US;AL;Southern;Domestic
5f23d19db6cad569e063599e6e1e958fbb8423f7c9977f3b5438c44431a7e3e5;10014546;1;2;Division of Western Truck Sales Inc;Phoenix;US;AZ;Western;Domestic
3f8a7b210565dd8b2788ea7023a4cf0d212e191cac3ee4ac49d9cbff8538be4b;10002709;1;2;PO Box 99;Albany;US;OR;Western;Domestic
e85e2af8e44fa233bf96e728c785149d0fe719ead1be25bab522836eea9d760e;10002489;2;2;PO Box 266;Villa Rica;US;GA;Southern;Domestic
66d9a19417a845162ed30ecf6c8904b11a997491a63948ce0f72bdb9996d127e;10006037;2;2;7225 NW 25th Street;Miami;US;FL;Southern;Domestic
c231ea94337cdba1b7f05d2a6fcf1939e2db31495b2b5de538356467e97a5479;10014804;2;2;Attention: Ann Borden;Shreveport;US;LA;Southern;Domestic
f6f37720c61d64dfa66778bc9c43882ee82fc3df9873980ea04018651f55aa7f;10009885;0;1;PO Box 7100;Winnipeg;CA;MB;Canada;International
e7dc4b93ea6455fc8bd19072cf3b921a203df40004cf3581de98d7f1b33b2360;10013572;5;1;nao informado;nao informado;nao informado;nao informado;International;International
e12d69b08fe08842e14b67803ca27da6cefe9df659b185967fafddb00f0eb855;10012600;5;1;nao informado;nao informado;nao informado;nao informado;International;International
ff49eb6eed5a3242a89c81d7e21a562e87144c3c80988068adc210138aee7fb9;10027119;5;1;nao informado;nao informado;UK;nao informado;International;International
faaacf97b339aaa4ab97b54c6f786694d2e970e29c97ba82bce72b6dc9702c6a;10024524;4;2;PO Box 511;New Hampton;US;IA;Central;Domestic
af8d26878d16e95b94997a4c300d857c3966ab5f8a1126cd8f75326c71052469;10009662;3;2;610 Garfield Avenue;West Point;US;PA;Northeast;Domestic
564b7ab84c3e2dfb122908bff2843df2b30d63a4b5a0d2d6f2e1d9dff435f8a4;10024924;5;1;nao informado;nao informado;nao informado;nao informado;International;International
f44c20c59293ab1d4a57f0b9face9215f46a1a2a23012b320ce495ed21305ce2;10000455;1;2;7392 Count Circle;Huntington Beach;US;CA;Western;Domestic
12625605ef56b36a2fc91a458c2309aaec4f71c75a5037ca18dd9ba4c5584df4;10017828;1;2;PO Box 762;Cypress;US;CA;Western;Domestic
43a77684f190928b31301e96860ad6480ccb61bc111d109b3dac90e1138147b1;10015495;4;2;Attention:  Accounts Payable;Kansas City;US;KS;Central;Domestic
9e5205a54876ec8e5051f886f37ba317182c9e3fdad2d7b9af642ce345ec5e4b;10013899;5;1;nao informado;nao informado;nao informado;nao informado;International;International
8cfd2540b4f89d6941963361e8401cd06a2a6716674189d7329ed5011924e0ac;10015886;5;1;nao informado;nao informado;nao informado;nao informado;International;International
4ae87378ca6f36190ba53f5f1bc9d074da70dae45183417648f292d970141fd8;10013332;5;1;nao informado;nao informado;nao informado;nao informado;International;International
8fb3a4c4cc0e85016f2125462fcb4a76b683fabdfb965d4c07ef3e4650302282;10025242;5;1;Parts Division;Seoul;AU;nao informado;International;International
7de7757ca55e24531c3bdef247c8884948d55d70dc1c5e8db9373b62c2a9a193;10021222;1;2;14296 South Pony Express Road;Buffdale;US;UT;Western;Domestic
1e8a55e3581ea542306d8a4a3298038183bd52fa628aac5193b15ede776d6a98;10015275;4;2;1601 East 29th Street;Marshfield;US;WI;Central;Domestic
77cfcd0ea82f681dd8aa837a45d6fc8384a4024b1c614049031b67094dfc26bf;10023785;4;2;Defense Const. Supply Center;Columbus;US;OH;Central;Domestic
af41a1f4c58b416db1271f56161290329b677bca4f0e4a27fb000511bd63143e;10017638;3;2;Advance Auto Parts;Roanoke;US;VA;Northeast;Domestic
c95d70f0872ef0d95eb88c27b9c2dec9df1bec648c7da4cab73a981dab6b9c9a;10005922;5;1;nao informado;nao informado;nao informado;nao informado;International;International
1562ba6b40dc0b7f8a94d0926698aecbe851c7bb9e54757399e1422e54408b32;10025353;5;1;nao informado;nao informado;nao informado;nao informado;International;International
77cfc764194d4c973fb14db66a3a6a3320684d729181ab58d656287a6bc28d6e;10013039;5;1;nao informado;nao informado;nao informado;nao informado;International;International
380a6c75d7c28a16b8f1b0f6604ac823f8dea779adbd0de656d3c9364e7af9a0;10025243;2;2;PO Box 5308;Longview;US;TX;Southern;Domestic
883ab476e7f666a910ed7bb7c6257563e289ee22afffa5fa054a4c77753634e6;10019512;5;1;nao informado;nao informado;nao informado;nao informado;International;International
c8df1e9e4c18d95a8936bf756f642896d40c1278cd19ccf3c47d7f004ef3d2f8;10002144;5;1;nao informado;nao informado;nao informado;nao informado;International;International
85e0547942e92ea378f88798cef90634f41e80cf096c9350cd17d6931b92626b;10023244;2;2;PO Box 899;Cleveland;US;MS;Southern;Domestic
042a7c71be6148d3bb53658e2d6da43baf0476905ac8f20b88219d8c397aec0e;10004256;1;2;PO Box 20505;Portland;US;OR;Western;Domestic
069c234f22cf28e7d62ef16085245d30d2d1f2162bff6beb6bd5e1bc1932ff5d;10023275;1;2;PO Box 30659;Portland;US;OR;Western;Domestic
4db7c50610e250dc9b5661e23fdbfcb28802cca8237dddc6f17aef3b2c56bda7;10025552;4;2;Order Processing Group;Southfield;US;MI;Central;Domestic
ebbd902677a12e449f1722ecbd1b1f274aa0f5b7f729cd82de418305909ba798;10019514;5;1;nao informado;nao informado;nao informado;nao informado;International;International
2d71dbc9069cfa76f240b4e4451329dd6f6a417a7df792dbfd82c962e84105da;10020332;5;1;nao informado;nao informado;nao informado;nao informado;International;International
e083e4e1a8144dd72c4e8f883abc0b5071dc65053bba0545801b8e2c425f831d;10016113;5;1;nao informado;nao informado;nao informado;nao informado;International;International
bcf855646dfa909b5bfdc501083507cea61ec5fa3bbdfdf730fa9e7124f68094;10009652;0;1;550 Du Parc Boulevard;Valcourt;CA;QU;Canada;International
bc6b4efe7281c7bb44df36857d2ca56e682e590cdbfb31462a50a8a969487dea;10005861;5;1;nao informado;nao informado;nao informado;nao informado;International;International
316c02eec3028925d9701646f529e18e06432fd68feb6d3289a17387d8db7bde;10009356;4;2;Global Motorsport Parts Inc;Cape Girardeau;US;MO;Central;Domestic
32826a6f59cb7c4d830b6ad0cf4e0c64c8be09ea05c9b7ca27a4af778424531c;10000474;4;2;PO Box 3265;Des Moines;US;IA;Central;Domestic
d5fbadaf4604d3565e8464a3773bd9128549926d9fe1d83d328ded43e68f9981;10022168;4;2;PO Box 113;Cass City;US;MI;Central;Domestic
d0519d25cfa4f9eeabac5ce1e45963ed4029ba9f756a0cc862347d16ba1c109a;10002240;3;2;50 Mystic Avenue;Medford;US;MA;Northeast;Domestic
f0709b5696b72cdca350e2c2d47577ed2d55687cbc25efdc3475257e6bb4d590;10026868;5;1;Aut Reg Del Centro Valencia;Valencia;UK;nao informado;International;International
a3962eea99f33db6d15bcc52b6f4f602ab543c843115c02640d8633c94fbd563;10023780;5;1;Av Eusebio Ayala 3321;Asuncion;UK;nao informado;International;International
33e286e8913b4e2711977e748901ddc8e9e24749d0a58d1df8ef01d00bacca0d;10026581;2;2;PO Box 22249;Savannah;US;GA;Southern;Domestic
35b1f80c4502a56bc37ba91a1e121dd0ea724b7e2a00b16963df5bdd7e1872b6;10023022;0;1;18412 96 Avenue;Surrey;CA;BC;Canada;International
c051ffe340477dc149ed639c5cbce9848065160105ee501b83939da58fcd5531;10025238;1;2;4567 Federal Boulevard;San Diego;US;CA;Western;Domestic
148eab2b8adf45f236b1073489ad770960e8a50f536f86997a7d9c178d986d3f;10023760;3;2;60 Lafayette Road;North Hampton;US;NH;Northeast;Domestic
f581e4966e646ba08d704889e6e3ef325df598a05ffedc5c75b9fe2ec24e93e0;10013011;5;1;Vagnhofda 23;112 Reyjavik;AU;nao informado;International;International
ea7e1f685120c29c3c8d92b54d360f08ab44f3db2633e4981675515fe5345e23;10025034;1;2;395 Smitty Way;Corona;US;CA;Western;Domestic
4ad780783e1e58446605071c40f09607bf22b0c82e3207d201d3e8a53622f1f3;10023513;1;2;640 N Eldorado Street;Stockton;US;CA;Western;Domestic
03b628bb4cc6e7ec14152cf95b511a43a618c05e32e38ea455709b2987618bd0;10000456;0;1;8151 Wagner Road;Edmonton;CA;AB;Canada;International
7b6781383d0b07da98767b33504d5a3dbb7ad2eabe09d904d3150766b9c6dd54;10011360;5;1;nao informado;nao informado;nao informado;nao informado;International;International
f0126ac58970f968d58d077dab6865bb4e845d7dd092445f74d245e97e1d86d5;10025285;2;2;2401 East 31st Street;Chattanooga;US;TN;Southern;Domestic
12de6c82ccbd3fbac7ea745ad58192ab69fc40b945d372c240b1be020a49b6b7;10022746;5;1;Landstrasse 18;A 5102 Anthering;UK;nao informado;International;International
8c52c981c02231344ec5f3823f570b70203777c9ff0a03a1d55dbe93e77b6775;10011052;5;1;nao informado;nao informado;nao informado;nao informado;International;International
9a304a456a5015bd4a9be0cdf1f79336be2eb7ec6d533df5a087681715633f95;10024880;5;1;nao informado;nao informado;nao informado;nao informado;International;International
1cf58789e55e4aac7db280ea717c9a0c1ff33ddb1114ac2dc55978929d2092d9;10006919;5;1;nao informado;nao informado;nao informado;nao informado;International;International
94a84742cd009615bb1a4d2c3d7d65d470cf2deb2b360a423c4fd878507d5fe8;10026843;1;2;100 East Inyo;Tulare;US;CA;Western;Domestic
3ac660ea0bae3be8cc6c2c205f6c2fd208480d9037d8457fc5cf7896a9002843;10006093;4;2;PO Box 5364;Evansville;US;IN;Central;Domestic
fb69aeb8838cbd4e2176e4d9145d3d68ee7cfe17b811396bb01b03dec8fd241a;10024541;4;2;Americas Body Company;Bedford;US;OH;Central;Domestic
da768ac9f5ecf167cf0172e92986a75cecffe49bacb5d071148b443dede9171e;10021472;0;1;9475 192 Street;Surrey;CA;BC;Canada;International
8397530133e23cc0953822937f427402c30134fa91126fa306eca25b1968225e;10010882;5;1;nao informado;nao informado;nao informado;nao informado;International;International
c7a8b18f0b3aa9311b324501f99022bdae23d36c725f881aa60b86db0b43b458;10013341;5;1;nao informado;nao informado;nao informado;nao informado;International;International
6c54406acc8f68cb93d3ad6db70308f701d8aa1adb06c30f3c300e491aa1e132;10023538;2;2;Attention: Accounts Payable;Fort Worth;US;TX;Southern;Domestic
4a8587f345acbcb6b7c4df6bb75220af416a0f2bf5facc1276c1e77644d8520d;10023524;2;2;PO Box 1006;Clemson;US;SC;Southern;Domestic
51166eda588d919156722a47b9f64653c2ebe0fafd455c702858a5fb460a15f9;10021160;5;1;nao informado;nao informado;nao informado;nao informado;International;International
857b67a073b5e008043afb8771082731df08dea893db5e037ac04d73de5b893b;10012235;0;1;PO Box 1005;Winnipeg;CA;MB;Canada;International
b1f0cb59c1e374d56058a8eb55443bf58e077aa047bd3198c66e7daa80830413;10015030;1;2;2192 Viking Drive;Anchorage;US;AK;Western;Domestic
026daa43b8104e00307ebe69ce71b57cefecfc8bccaa539c8e308c9cf30afe58;10016334;4;2;Attention Accounts Payable Department;Overland Park;US;KS;Central;Domestic
4de93cc415f704dc30c4c06b69d809922fc1eeb3a6ef2d9aa324b6f4d4656aa1;10014495;1;2;12900 SE Capps Road;Clackamas;US;OR;Western;Domestic
bf01e7520fa278ddc36f3efced231eef8db3056b9159a077846a4d9c6d708b12;10017576;2;2;PO Box 10455;New Orleans;US;LA;Southern;Domestic
0f0da1f72f700c67b8f1979ce73f1491ce7b07dccd86c6f305abb4a38d71889f;10004516;5;1;Vehicle Operations;Lighthorne Warwick;UK;nao informado;International;International
192c8fc29f67980552684e2e1deb065d09b0cc18de256d9eaa37525c37d5e5e5;10024016;5;1;1-16-33 Kotsubo Zushi;Kanagawa;AU;nao informado;International;International
6e4e969a7e7737562ddc3b4bf910f57d18e3f89652814a336923e6c4a47ab36b;10027050;4;2;3204 W Mill Road;Milwaukie;US;WI;Central;Domestic
cdb76350acf9cb19fd87701bd604336e9b24a1d5a2916700b563e73dd0b79045;10006977;5;1;nao informado;nao informado;nao informado;nao informado;International;International
85c142dbb018f0a80427cfff7e7a154d7de532e855a0c97a6f2609543545e95f;10013574;5;1;nao informado;nao informado;nao informado;nao informado;International;International
a9c3e7ee242dce21ac50913b716b3dd71c38c286aeb775e39a144b5412e21e21;10025158;5;1;nao informado;nao informado;nao informado;nao informado;International;International
0cbc97f75f29ca1f865840e40fcc34e53a861acdf5c3a5d28017aaefa0090147;10022444;4;2;Detroit Technical Center;Livonia;US;MI;Central;Domestic
3ac508be4b51c97060dafb4ac1635bb034b4a7195e9c14fa6716176ec60f953b;10025302;2;2;4345 South West Boulevard;Tulsa;US;OK;Southern;Domestic
372ca2f81760dd8f7f1ae9017b6874191192251546f9708cb0cafadd1fc706db;10020931;1;2;PO Box 549;Bozeman;US;MT;Western;Domestic
4aeb5f06f4b5b77314bb1afecd64cb8748b162c19432acb1da1a546de9801132;10020446;4;2;Worldwide Purchasing;Pontiac;US;MI;Central;Domestic
6da7120ddca7c671e6e2c86f3657b89283c568cf23e906ffbb04506d0decb3d6;10025252;4;2;PO Box 4405;Elkhart;US;IN;Central;Domestic
a87cb111d1df1c97f785d0243023f26482e93da7fb04dd7573513bf77449a276;10018518;5;1;nao informado;nao informado;nao informado;nao informado;International;International
336c372acb19958d86413dcd9b5142b05ea608fcf39ced7ee8216d67beb5f859;10001103;5;1;nao informado;nao informado;nao informado;nao informado;International;International
4f5888399a9533a68c007783110b7a372fbdf25a2f219dbb203d73d7b74946b8;10013397;5;1;nao informado;nao informado;nao informado;nao informado;International;International
ade2cc481001169c6c54226bef284cf0c900fb4ab96f0c7e03fffc16559a451b;10020639;2;2;PO Box 3445;Tulsa;US;OK;Southern;Domestic
bec88735d54ebe5c46f00ca06dde84c0e87fe7a2c6981efa3fc2e2cb98fae80c;10008596;2;2;PO Box 578;Springhill;US;LA;Southern;Domestic
e8049dbe9a5810c448190c34eb96c1b3f4b28fd68da7a409aa01b9809ebfc8f2;10024246;3;2;580 Waterman Avenue;East Providence;US;RI;Northeast;Domestic
ff436494d4fe3ad24caa544952ac85e2dce1662eee7d139fefe04b33aa8080c0;10021270;5;1;nao informado;nao informado;nao informado;nao informado;International;International
7b7f9424ed562a0de719cf53a7573627ed3b2ee6042dea48efe6f1de53223403;10025033;1;2;226 North 13th;Billings;US;MT;Western;Domestic
42f401ac7f3bc5e8804f110b92b5eac5f98cd88e0224679a2b866cbf3fa24074;10025560;2;2;125 Hampton Ct.;Cramerton;US;NC;Southern;Domestic
a99fbf6f5b7a6d8273f16f3bbe480b247a4b9b6f139d46a25e9e3e82a4b6f5e3;10000457;5;1;nao informado;nao informado;nao informado;nao informado;International;International
0f72a03ced22dca8987c20d833fe183ad644101c6f6021f8a256708a90766fed;10008893;1;2;508 South First Street;Yakama;US;WA;Western;Domestic
f8e64051224831eff3a966166be94062e9661f904b47fc2476515a78a5e0b391;10025571;4;2;PO Box 3283;Des Moines;US;IA;Central;Domestic
ceabd344b7f8e668c6a99337c15b9af30822a349232325a53486a70eaa195b9c;10021459;2;2;Memphis PDC #19;Olive Branch;US;MS;Southern;Domestic
f87651e7ecbaf843817a6174b647ef43fa13f248e9aaa981ca88f77e6464d8f2;10025515;2;2;3650 Bay Street;Jackson;US;MS;Southern;Domestic
436b70eb3952db45699ba6a272a9e8fcfa1bc33a4f8dd7efca0eb7ba17556fb4;10022249;2;2;201 Old Boiling Springs Road;Shelby;US;NC;Southern;Domestic
2d2b8226db40d451d30d31b679da1edf1238824f1104de854daa0cf019b53b98;10020914;2;2;PO Box 547;Calhoun;US;LA;Southern;Domestic
d626608c6cf593d29667d53e2f8388d619698cbfcafd6af9c838bb8557a291f5;10021204;0;1;480 Gordon Baker Road;Toronto;CA;ON;Canada;International
5e231e691094db0e35349b95e6a1407ad5b7a3a5b636cf49673017f24b6bddda;10011842;5;1;nao informado;nao informado;nao informado;nao informado;International;International
98e7461769d41ed667eb91e626930f14d79e213d02e012f2c4d7b949b04795f7;10024704;5;1;nao informado;nao informado;nao informado;nao informado;International;International
c34c98c70213e05af6dc8a2e005b061e121efc2b6625f0cf76e89621d4160e9f;10023715;4;2;Central Division;Plainfield;US;IN;Central;Domestic
4ce5941bc010ce8904574292de3e4e6a29d00affaf9aa11c6b8c2aa1d35775eb;10018871;4;2;Field Accounting Department;Livonia;US;MI;Central;Domestic
b36c303bc7696bb999b77c242a8f6c3bb4a0e24ed3fa92e426d26e8a1d8d75c7;10019665;4;2;7940 New Jersey Avenue;Hammond;US;IN;Central;Domestic
1e470d7bf72ca912b928c9c6cbeeb51c833c9936b31e36917c84f6e3b482888e;10027572;3;2;2210 Bowen Road;Elma;US;NY;Northeast;Domestic
0d97276690f07fd6bf75d13ecd00192b970cb6f1e710819fda7a77b4ffe5c5ef;10017852;5;1;nao informado;nao informado;nao informado;nao informado;International;International
061203069131afb8dadeefa1431e78d5ef8a977d1f45bc00ac28e9f6489529af;10009642;4;2;812 Draper Avenue;Joliet;US;IL;Central;Domestic
ab33e639a87c31ed0eddaa000718dcfcb4fd8f5ebebf4f4617ce49e65c5ed954;10009676;4;2;167 East Kalamazoo Avenue;Kalamazoo;US;MI;Central;Domestic
c9d4ee63dc808e2f1e8cfc3291fc1fe292672120ae3fd94152ff46b0b4a6a101;10000475;2;2;5745 N Tryon Street;Charlotte;US;NC;Southern;Domestic
d71126e24ba2aa320aab3170d84b85486e992bc6ec3a52c922b812bac3a7826b;10017072;4;2;4200 S Morgan Street;Chicago;US;IL;Central;Domestic
6ccd22bd7011304863781ac6001f9678a9147dd259aba6050f62bc6cdefbbe27;10002136;5;1;nao informado;nao informado;nao informado;nao informado;International;International
249bee503d29fdb149891e5588f5f086bc8dd06934530fb853c7dacfaf56bf93;10018877;5;1;Dagher Plast Building 17;Beirut;AU;nao informado;International;International
27b8c51e702e7c92bc0573fd0d885d936868df3b0fa1406f6772a7fcdfea05e8;10025032;0;1;c/o Rampar International Trade Corp.;Montreal;CA;QU;Canada;International
1bbb420cb6805c4e8e87ec64988fdd625460165342805dc86aed90f43a80a8c4;10011089;5;1;nao informado;nao informado;nao informado;nao informado;International;International
f92793e022fb954c6fa3e759f5420b78fa334cd1c45e271a1988d78955a20611;10004255;5;1;3F Shinwoo Building;Seoul;AU;nao informado;International;International
1b220b9ca28772873f3db4545b95b9d8ef5bc4eff7953f731d095b5cb91fe2e1;10011600;5;1;nao informado;nao informado;nao informado;nao informado;International;International
fbe1b6644addccc5a79d23bfa6f0e75b6671f0bf133de9e48e94131109f37a0e;10010887;0;1;9605 56th Avenue;Edmonton;CA;AB;Canada;International
1f9a0020028192d94097efb805287163b461cb6be2ad55585b258f498b5b7b30;10009669;5;1;nao informado;nao informado;UK;nao informado;International;International
17de3e9b14e0273eb9c6439555aa18d15c1ba4bea58b07d728e7210b3c76297a;10014238;5;1;S Gravendam Seweg 53;2215 TC Voorhout;IR;nao informado;International;International
998582ed490871578c76dfea243878398bee5cb050895e36af1176eb15e2de12;10020672;5;1;Brobekkveien 105;N-0598 Oslo;IR;nao informado;International;International
0020a04b0dcdc18d2df3c73c273ce3cb2066a1c745155408d44b055bee03a3f7;10000478;2;2;8120 E Doyle Springs Road;Little Rock;US;AR;Southern;Domestic
2cecbdbb234b597b0eb5ae853ca38c7709e69cc91f445086b626f345ec25d9be;10027560;2;2;3356 Kermit Highway;Odessa;US;TX;Southern;Domestic
d8e2ee8753f8b1e65d841026c6bc0257a4998138107c8e2c73dd12c04ddd521d;10011997;3;2;2177 Dale Avenue SE;Roanoke;US;VA;Northeast;Domestic
6b78e7b4bc6521315ded0281e2fa513596f968cc5fb1e908025c6828f3bb1ede;10025359;5;1;nao informado;nao informado;nao informado;nao informado;International;International
01cb2b871f08817dd583e6e68e2fe9360d09a6fa865ec5347630f28815308be5;10014810;4;2;Attention: Accounts Payable Department;Canton;US;OH;Central;Domestic
12db8b2781dea46d61d4140b0804c79286a250573cb1a1c84e1fdb6d21c32b84;10022167;5;1;PO Box 10361;Georgetown;AU;nao informado;International;International
0b90c7ba4980519f4533982407fa297be1e4b954b2ee7ac0158b888bc09aa4c8;10010886;1;2;522 Montana Avenue;Libby;US;MT;Western;Domestic
b5bdedb87ec7725ecfc9199b26211c4a0e355dc718850870737760ff32bc7382;10002161;5;1;nao informado;nao informado;nao informado;nao informado;International;International
30008e684c598c584ac8b88ad962444b3bb4091dfd09c01a12bd14e7151fd149;10025086;5;1;nao informado;nao informado;nao informado;nao informado;International;International
2fa0e71d9b755bdb4b263788970dd790ecf9d428e4da2c68496b45df7277453e;10025023;0;1;815 Circle Drive East;Saskatoon;CA;SK;Canada;International
112d21ef5783045166b7e68fdb48ce0a41509e76291ef515aa34f9c40fddf82d;10024942;5;1;nao informado;nao informado;nao informado;nao informado;International;International
4bac070d2ec63b937bf0712da22766b62e886ccaa01d45939de93973a70e3abd;10011821;5;1;nao informado;nao informado;nao informado;nao informado;International;International
1855ac876f21a681d0a7237702b19ded85fe37657a80370dea6c9605f332c1f3;10010969;4;2;317 North Main Street;Elkhart;US;IN;Central;Domestic
4a91cd3721ab4d5aebb4ce105a3e1a4a609bc79da8ee20d9933f9db98f4bdaf6;10020684;2;2;5415 Lamco Drive;Montgomery;US;AL;Southern;Domestic
57347662277cfb72d3a36fc0c43a72a98707b368dc5212249603375fa106e0c7;10022470;2;2;Attention: Linda;Ormond Beach;US;FL;Southern;Domestic
22224bb004fdaa957b06a9925f3ad5d64e1f50b89d4463920b3993515725d2f9;10021736;5;1;nao informado;nao informado;nao informado;nao informado;International;International
0d8d0a3e2913078e791efdb075b65895d27ce84ffec0ed2f54ec97ae4db56acf;10020491;5;1;nao informado;nao informado;nao informado;nao informado;International;International
b1d0debc8ae65b46abe0f17cf585a83ec3882cf18ae72beed2970f9cee472aa3;10015253;5;1;nao informado;nao informado;nao informado;nao informado;International;International
e888aba4323e1553c656de163e17ee8979abf70def33a7a1645bf45d543b219e;10006805;2;2;1801 NW 82nd Ave;Miami;US;FL;Southern;Domestic
cab4aa41054b674183b3c8154f65d318f84ed826440fc6611cf95ce372a460db;10000469;0;1;Attention:  Accounts Payable;Montreal;CA;QU;Canada;International
9321f5a716059e13e78caa59dbb1377800a291a55591f3975cab122cc4093ede;10000461;0;1;1391 Gay Lussac;Boucherville;CA;QU;Canada;International
2694d116c29acbb4a4a3b3f58edd5ba21d56b64c79ba5ef77beb1875952b6147;10023023;4;2;600 South Brooks Avenue;Thief River Falls;US;MN;Central;Domestic
82669edbfb1ad4c1fa173217ed6809867443aee87a4e3a0a06df263af12112f8;10024009;2;2;PO Box 582510;Tulsa;US;OK;Southern;Domestic
8cb34f4d9dad09172a6f76630d1085a6c1b44280b077734f75e901429893ff13;10013052;5;1;nao informado;nao informado;nao informado;nao informado;International;International
3662c94cda29ecf28db8325e7ff5480fe7eae209dfdb519c42ba411c0e9bba74;10010970;2;2;1477 E Highway 356;Irving;US;TX;Southern;Domestic
cfacc961198339abf9f8254333195519bf8c2ed6c4659dae2b4c9d72c0498fef;10020080;5;1;nao informado;nao informado;nao informado;nao informado;International;International
993c0171977259d307468bbee98a4ec685d70ec3fbdd540155d063fb5f5a795f;10019909;4;2;500 Airport Drive;Shawano;US;WI;Central;Domestic
91ff262d4ed34d89298f77be68c6816654ec0854b04522384f2b0843bcdb0483;10019897;2;2;7210 Gateway East;El Paso;US;TX;Southern;Domestic
53e16bddd426ee62507f8b78b10cf816f1376ca5d769535f3926440d1c4dbbd2;10011979;5;1;Rua Eng Ferreira Dia 241-243;4100 Porto;UK;nao informado;International;International
c93f633c0dd2481e0b1c1b7e5d9cc3305c0432d6ea2fcf29334515b69910bd49;10010717;4;2;208 W Main;Waterville;US;KS;Central;Domestic
72160b1f6001701309f5fd9bd8ffdc996728c53af9ae24dedcc098a680a3e635;10024999;4;2;RR 2 BOX 9;Andover;US;SD;Central;Domestic
ea0432c6149704cbf8a68aa48ffcd3a05c64bce863302a097d05d403019627eb;10025052;5;1;150-3 Chilkei-Dong;Songtan SI;AU;nao informado;International;International
69660d4da3d5ac95e4016bc1363880a2710bd4fb71af29ec111bff50cd9ebe48;10012851;5;1;nao informado;nao informado;nao informado;nao informado;International;International
edc19ee130b685ad2ebb3e7d2f1aefc6d5c1074530e21246719267ccfb28f8cd;10021470;3;2;815 Hellam Street;Wrightsville;US;PA;Northeast;Domestic
52967a9078703f6eb05a49c40de7853acbe60a82e64b521f79b9635c31bc355d;10025298;0;1;1111 Finch Avenue West;Toronto;CA;ON;Canada;International
b3c72c6e16fda6a07ad1ca381189338df163d4b7c7394d5724d0cba9be79ed0f;10013670;5;1;nao informado;nao informado;nao informado;nao informado;International;International
4d95287461f8719131d0246f46a096e64f96a2190c3f7dbeb3971453fa5a1352;10007866;5;1;Rua Sepetiba 464;Sao Paulo;UK;nao informado;International;International
932236d1ca6941eb0b9bfca657f7054639e0f7bab5812b2257b6e0dfa44f6740;10025791;1;2;PO Box 667;Prineville;US;OR;Western;Domestic
5a1420c27475c0c170ac97a2047a2c861d912649597c92e320a27fd7ff68dc6b;10017054;4;2;7640 North Telegraph;Newport;US;MI;Central;Domestic
888e8d0a18c19ceefd5a591f27bcca117ff44a038e9724c9d2ceb858c32d5370;10023221;4;2;Attention  Accounts Payable Department;Overland Park;US;KS;Central;Domestic
66e05d153fddd8c8c19f4110a580d471e6df136a1e0b82e77f9f59b297920670;10022725;2;2;1723 Webb Drive;Norcross;US;GA;Southern;Domestic
cdd5d85bcda763c3d1fccaef480aee5ca72d3159e87f917cff44089df2cb386b;10023509;2;2;513 West Waters Avenue;Tampa;US;FL;Southern;Domestic
aa5d958c512d439d289c1ea1f99f97161c9fcb1be9c99454ef220f5294f66bec;10008134;3;2;23308 Airpark Drive;Petersburg;US;VA;Northeast;Domestic
74420148f95e49c68551697e99bfab5bf13a5b9d478dd79a1c7c9de96fc1e366;10025737;5;1;nao informado;nao informado;nao informado;nao informado;International;International
06236028a1eff02e7a4eda07d983de286c7bebf3ce5b83224334a403567007b0;10024260;1;2;PO Box 13056;Spokane;US;WA;Western;Domestic
ebcd11007eca6dc50a92f2c586736fe4c8d0fcff6e41721f7b4132d72c86be62;10024270;1;2;PO Box 1010;Maxwell;US;CA;Western;Domestic
828730eacf9663be764df31ba4ce6f9a72374463c7eace30c9fdbbc4a747085e;10003749;5;1;nao informado;nao informado;nao informado;nao informado;International;International
a76d21e81fc9990b56e9810b9f2f8a899660daf71548ef85474ecd2844f729e1;10007183;5;1;nao informado;nao informado;nao informado;nao informado;International;International
6c6dd5277f4c80f72a7fb1bfe9ea11608d1f0c1066aebca4630071233229a0a1;10017307;0;1;10401 Boul Parkway;Anjou;CA;QU;Canada;International
c617836926a3d8bff8926c4034daef14532df16b7af8b8570ac29e97e42a50cb;10000499;5;1;nao informado;nao informado;nao informado;nao informado;International;International
fdd7f11a1eb6b438c776c8aecd3ecadbbf55b8c95c62e0e5afa5154abbbc2341;10007134;5;1;nao informado;nao informado;nao informado;nao informado;International;International
b569a60b5c50e637dd0f380e43e03f33834d37ce9913193303454c5a1771d022;10009639;5;1;Industriestrasse 17;Industriestrasse 17;UK;nao informado;International;International
5df18eb3c3b57ff17d596dbc1f05c2f0f142fc19499dcc73b6830447e4a24b2c;10018867;4;2;2400 R E O Drive;Flint;US;MI;Central;Domestic
e05d3c96846a633885fce7cc7a0558996b3618211df9f090033957e31e1f439e;10011870;5;1;nao informado;nao informado;nao informado;nao informado;International;International
f4f8644c2b6f6ce0e97b5472e5e55158edd39ee98d1a0361212cc4ff6a4fa058;10013871;5;1;nao informado;nao informado;nao informado;nao informado;International;International
ab6a437131ac23844d26150fa5a67270b9a4d957aaa5be5a9c760a68a14fa5ad;10021006;5;1;nao informado;nao informado;nao informado;nao informado;International;International
50b28e6fc73116ef6c402453c08f54a13a9dc7859f59216d687d3fbd3856ac2b;10002746;4;2;1200 North Ellis Street;Bensonville;US;IL;Central;Domestic
498fac04615340c5b5b79539bc7fc72619fb3cb94c2c49446b1179ecb0bd2a61;10020445;4;2;PO Box 80;Rapid City;US;SD;Central;Domestic
671778055d0084e4a78614d94e1db42a685baf779a54efa418763d979591a1a1;10023241;2;2;7700 Counts Massie Road;North Little Rock;US;AR;Southern;Domestic
a31ab48110b805729f38ad1b37007cfa71a84ac3d92833ab370d96a093780e6f;10009679;2;2;2400 Highway 19N;Meridian;US;MS;Southern;Domestic
3fa140f71160d06df7e2f4ccb198b09b66e36669e0e729af53498ecad8c69745;10019880;3;2;New York PDC #20;Somerset;US;NJ;Northeast;Domestic
e36e3e6ae9c7f072d7ad8af0caf43fb9e529e1ef8d49c7944d9bb8b661f664cb;10000497;5;1;nao informado;nao informado;nao informado;nao informado;International;International
fbd806ee36758d38189c799709f0491936282f58db2ba9849f4ecdc5861e2dd6;10025025;1;2;2402 West Valley Highway North;Auburn;US;WA;Western;Domestic
9e70a1b5f49d42eaea0d48ec3815ba097ab50e74e950ca4c9291eb2307511472;10013232;4;2;PO Box 250825;Milwaukie;US;WI;Central;Domestic
d76476170ff2415b1a4b9dbfc7eeace1c4fb65ff6effc5a50aa37c89449fe3aa;10003795;2;2;PO Box 2484;Baton Rouge;US;LA;Southern;Domestic
7a4bc8ae4812e2ad8b0b819a976ec42da1978f5c94ea6005da60fb7e7051b61e;10020413;2;2;PO Box 447;Okarche;US;OK;Southern;Domestic
463c9e39ef26fbb1128e071d40e0cf7ece33e3cddd973a366c687a1acfbbf007;10001818;5;1;nao informado;nao informado;nao informado;nao informado;International;International
8514a5b59a17374f3e01cae860ad0adfa5e4a6efbed5745285bb904cc5b2f54c;10019410;0;1;6710 76 Avenue;Edmonton;CA;AB;Canada;International
e585913912b102c54253a2c86db522afa8a081d8ffe68b969eda67ab047311cd;10022240;0;1;1665 Shawson Drive;Mississauga;CA;ON;Canada;International
f4f1d522e90a03b59b8522300a76c089212ab18db5419e10192ec44a9a942fe1;10009645;5;1;nao informado;nao informado;nao informado;nao informado;International;International
40785b922bde303e4b3bddce28e082684916b307ffdc187a1d0c70317fa38119;10015789;5;1;PO Box 14311;Jeddah;AU;nao informado;International;International
eb1307a286d96f764d830ca5fc1dfc7dce4fdff23079bcb40e89260dded751d2;10022183;1;2;1760 C Airport Road;Breckenridge;US;CO;Western;Domestic
e8783665bb21b0b964c1d1558b00c8385e8bc0f8f011e5d208d9a0704868431a;10003720;3;2;2755 Kirila Boulevard;Hermitage;US;PA;Northeast;Domestic
88864151cfa3abdddd907a931b85ffe143add4fcb218a31c2b4b520e4df76a0c;10026009;5;1;2 Calle 25-80 Zona - 15 Vista;nao informado;AU;nao informado;International;International
db06a627ebbb247bee218f22da13e04adf4a9c6d1af6ca9eb9828dff0f25cb79;10021418;1;2;10930 West 44th Avenue;Wheatridge;US;CO;Western;Domestic
b9d55e160c09e7226a1acf57eb83a100ea74665a3aa5e09ef14b5ad6b8ada63a;10018129;5;1;Rue Champion;ZI 1 Ducos;IR;nao informado;International;International
a4f4c003a7fcdfd76ab6f41b8f6df5dd78461844ff0b5e6b3cd112be37f536e4;10026522;4;2;4353 W 1900 N-48;Fairmount;US;IN;Central;Domestic
ffc3e4013f42df79757acf43993d3f2d43619dee2a700dd919259ff828f2a495;10023235;2;2;7600 South Santa Fe;Houston;US;TX;Southern;Domestic
0f61fed654e0cd7a9f4bb40a46bc5ed11423db7391320c924eb766f75e1a7a65;10018580;2;2;PO Box 790;Beaumont;US;TX;Southern;Domestic
c2523fbeece3dc09796b736e549839f960bedf7bb423b121acf76f97207b7606;10025267;5;1;nao informado;nao informado;nao informado;nao informado;International;International
29bf2539ca8ad239c7c2c57e389808f2fbc557a89258f1169491b1ea920e57cc;10009643;4;2;4103 Holiday Drive;Flint;US;MI;Central;Domestic
8395bb3fe63bd9b4cda40d8ccef2116b7b9d67c943301c241225992aa4991b75;10000601;2;2;1550 Aereli Avenue;Creedmoor;US;NC;Southern;Domestic
c290f91e8dc900eb7d52b7a8dddc668db24c00a92d17fc8f224b85fc143bf6bb;10009653;0;1;3355 American Drive;Mississauga;CA;ON;Canada;International
edcf94a7cbdd787128294d84272f1a8a8f2e168e225702b12f4037d1ef48e21c;10005376;5;1;nao informado;nao informado;nao informado;nao informado;International;International
96acc7f12adc368a140ca837c41d79ad6f74c47527a1183f4b8c3a647d37bd35;10009985;1;2;PO Drawer 40;West Jordan;US;UT;Western;Domestic
a822a739dd3bda66fb681ca83b99711f1ec3c10069bf63d479d62827ef21c1b7;10025251;4;2;A Scott Fetzer Company;Wooster;US;OH;Central;Domestic
7b8c7763cab1e0a6d6e0835b0ba6669ee809045069612d6f36c98d88baccd789;10025508;0;1;1809 Main Street;Moncton;CA;NB;Canada;International
2ceeeb17a40e2bb463afd1796bdd19ea880a3ef6f0e4abd2edbe7b77034c54cf;10009623;2;2;2125 Whitney Avenue;Gretna;US;LA;Southern;Domestic
fa6a54ffcce2c47284ee0b8641e4bc116796a6b2dfc3e053199a4b99969b297c;10024034;0;1;16215 118th Avenue;Edmonton;CA;AB;Canada;International
3a57baa811d7aadfd32e9224f5d7e04584b30a4655177ddb8374b640d79128f2;10002155;5;1;nao informado;nao informado;nao informado;nao informado;International;International
3ea48b1cbf9597b967e53b93b90f8dc7286dd274b2fdd3893df3a3718c84bbdb;10019469;5;1;nao informado;nao informado;nao informado;nao informado;International;International
bcf5a63dd9270b0ff758b4b9285304d72e35adde83626a621d094a0719f07fd9;10025392;5;1;nao informado;nao informado;nao informado;nao informado;International;International
79fe839583c8cb84709c8a25bba4b4ddb261a4e2ed8a672b5c4dc1764276c0a4;10023757;5;1;nao informado;nao informado;nao informado;nao informado;International;International
f973ba703c0d027a27f3da4995ebf36cc2e07596ab960ff7f3038798e32b39e2;10002526;5;1;Kadaka Road 72 a;EE 0026 Tallinn;UK;nao informado;International;International
766892b3c3bf70857bcddf959e37f772cbbb357ac39b4f88a44e36fdd13bc511;10025063;5;1;Private Mail Bag 53;nao informado;UK;nao informado;International;International
6a7dfc49f767cde7604af73aa134f52247e9f68cb458ba78a3f1ab88b5c1c547;10014471;0;1;2916-21st Street Northeast;Calgary;CA;AB;Canada;International
38e6f7174d7722fe7027835cd38400d6f65dd03da3b7192b1487423768817259;10026081;5;1;Weser Ems Strasse 2-4;Bremen;UK;nao informado;International;International
3e18231ea2c08a568902ece3b7c5b925c7de0e70ac609effff2cdf82175bfed7;10012305;5;1;nao informado;nao informado;nao informado;nao informado;International;International
509e3112c842392137c431b2bdbd8983840ddc0f76c0f78c2e61f875b71c5778;10011734;2;2;PO Box 19858 Station N;Atlanta;US;GA;Southern;Domestic
e4d419ed4b83166704379ff9008ee78b4fe72cb268df42f59cf51f25621abc3e;10007122;2;2;22015 South I-35;Buda;US;TX;Southern;Domestic
21da56da8900ab0473936899448ddfb126c30c83bbdec5de986e2da3e3a5cc45;10016548;2;2;4700 Rangeline Road;Mobile;US;AL;Southern;Domestic
8a6418fca4101ca3accddeb2ab2b96af4cc723cbd6fab6819c404d20b078e592;10021297;5;1;nao informado;nao informado;nao informado;nao informado;International;International
27cc8cf5cccfb653e09ae3ade299f7497adca34a668948474b9b20a27f4fab35;10021145;2;2;1127 South First Street NE;Brookhaven;US;MS;Southern;Domestic
9227fb90bb9cdc31059b9c5a1bc9bd79fb179985448d63dac20efa64c99fe11c;10024477;5;1;Modulo 2 Manzana 27;Santa Cruz;UK;nao informado;International;International
988ffb8e3fd437ee12990fcd80865ea7700662392e069bdb8311b02e7b49f501;10024248;1;2;9440 North Whitaker Road;Portland;US;OR;Western;Domestic
33ab647526c02d23df79564ad533a28b895af8668e879b342af97382fd952582;10021485;4;2;FOB: Clackamas;Hamel;US;MN;Central;Domestic
a2955ad5ba9aea141bc801fe0546ffe7420bc3778cf4ae432136a2d326ed607e;10025062;3;2;731 North Beford Road;Bedford Hills;US;NY;Northeast;Domestic
41f0e030c3422d0d8c4f7d88057f928b407431d137d9c9377fca5fbd31b341d3;10021240;5;1;nao informado;nao informado;nao informado;nao informado;International;International
be8640e5211387716ce4d30c06fca2a63a0bd2179f40175555728f40cdba229e;10019900;1;2;3248 Auburn Boulevard;Sacramento;US;CA;Western;Domestic
e42e0b565fcc2252a20f53d5fc3a6b2e9ff84f3e3838eb72f82c37bd6ab8023e;10000462;4;2;6311 North Lindbergh Boulevard;Hazelwood;US;MO;Central;Domestic
d035e15a11a4e078e4445db401c64deb4e08f8532945350ed4e86d6f7aaad710;10006848;3;2;1101A Potomac Avenue;Fredericksburg;US;VA;Northeast;Domestic
5710a0cad231b2263d83370655df66a6f707b5d9b75632c672db9aa33242390c;10022962;5;1;nao informado;nao informado;nao informado;nao informado;International;International
279397b32764c8450a47459e8625b7994744b03138d7be80408ac68c41ab0377;10025241;5;1;RU-3 Hamamatsu Nishi;Hamamatsu City;AU;nao informado;International;International
85bec15ead7ec10b759c4655c1062d19129ad20820cbf03222b80522b79c10ac;10002501;5;1;nao informado;nao informado;UK;nao informado;International;International
cb26435f4a8d060e2ce2e043542807e2856304887713513a043cb217419f0b4e;10018363;5;1;EDIF N 4141;Panama Rep De Panama;IR;nao informado;International;International
1a0cf2d719b47d24789012d3a6aeb4a9cf6f7f4179a99d64b633c0cad9bb5058;10022978;5;1;nao informado;nao informado;UK;nao informado;International;International
46f88e62f344533096844a345a19c0261442c3134046628334e98bf032ce7ac8;10027348;2;2;6501 Adamo Drive;Tampa;US;FL;Southern;Domestic
0b6918a4f103335b5d4c091f4722ad40fec0c3013380be6971d983375230011c;10025575;0;1;PO Box 640;Beamsville;CA;ON;Canada;International
b61a5b1955c2c486b1ab8f953a70d565086fce32613e11e6b8a1008527e0f6b1;10002142;5;1;nao informado;nao informado;nao informado;nao informado;International;International
eb1b2fdff810018cbd57a5472ca2ff453dd2a7d1d3c1b64ffbd2a394e94f4584;10020256;5;1;nao informado;nao informado;nao informado;nao informado;International;International
ab6650f1c68b985f3ea12f2dd40818cb8c57b87ad29d19da947b823e6d74d030;10021412;1;2;13101 SE 84th ave;Clackamas;US;OR;Western;Domestic
d686668498c1b798564db87e04205157d9f0c655e02ddb4075ed02936c95ed7a;10013238;4;2;PO Box 5222;Janesville;US;WI;Central;Domestic
b4f14975698e09404503b6aba24374cef980835e6890175736bcdf466cf1e51d;10024006;4;2;PO Box 57;Columbiana;US;OH;Central;Domestic
4a1379a4c2689fc495b7dbe2b55dce62150aa18dcb236d6770d0ff8c5abf9ed0;10002150;5;1;nao informado;nao informado;nao informado;nao informado;International;International
fa8be8434f942043f2af4c9450c715d08007ced08374ef4c219c81f076222920;10004207;5;1;nao informado;nao informado;nao informado;nao informado;International;International
583c87ae3767792caa12e8287c82c70b6ee94567ee76856410c7d35b51c05fad;10026355;1;2;1275 North 6 Mile Road;Casper;US;WY;Western;Domestic
37ce47bddf9b57bf99ef1aeddc23c41788cba47856de406b403686d6491153ec;10020393;1;2;2649 East Mulberry Street;Fort Collins;US;CO;Western;Domestic
dbecf4242e3b0faf5d7ebc125d712328319b52b39ba6907750d8675ae733b53f;10025558;2;2;6104 Young Road;Little Rock;US;AR;Southern;Domestic
9f2048b107dea98d22585a8a8aac1c26c34861123d291f530c0876dd58097a67;10005919;5;1;nao informado;nao informado;nao informado;nao informado;International;International
248db71f7f3e3b145d171f8db33148e55111d613495f452b45b16679b78a832f;10021331;5;1;nao informado;nao informado;nao informado;nao informado;International;International
ccf62b9396b3829aae5b00607c32167be7374ded52cf2f830e4e437b2633825e;10025919;1;2;801 West Artesia Boulevard;Compton;US;CA;Western;Domestic
dc608bb26d33634ac476e3d641c5294ea558207162a6d5f387f97ab67599c6ea;10018644;4;2;Attention  Accounts Payable Department;Overland Park;US;KS;Central;Domestic
334925edf8d5bb8ecd0329929208d0ef5efa054065061de160cba092dc7bbd66;10014264;4;2;1935 S Campbell;Springfield;US;MO;Central;Domestic
4e7cd5634f2c5b2a8258374f18ec20d7b5417974465fbcae103f5c2cab421a52;10026839;2;2;1201 Sycamore Avenue;Greenwood;US;MS;Southern;Domestic
6a928bec86b912ca5bbf6a6b583a89382cda405b89bc38b1bdda6777c4fe27ec;10020663;1;2;540 South Rock Boulevard;Sparks;US;NV;Western;Domestic
bfd54ddb506fca2a759ae291bc8e7646f2224f9c71ecb982bc986d6b2917cc2a;10024003;1;2;Attention:  Accounts Payable;Benicia;US;CA;Western;Domestic
78f56f008475abc8efd6e464300b60cc6a7131b002542cf2c5c04c61a3421c84;10016588;2;2;6025 Corridor Parkway;Schertz;US;TX;Southern;Domestic
59285137ad3da26b19c9df24e007b8b265326ef2284803a9c4d95ce6def724cb;10021996;3;2;8 N Industrial Park Road;Milton;US;PA;Northeast;Domestic
41d57802c860fc6f73baaa51d4cc1ab3a657b3e8eacdeceb07020861dfe9509b;10002140;5;1;nao informado;nao informado;nao informado;nao informado;International;International
d10a0c9a4b4183da3901cf1b39d49913455bad1ed56715134714ca4807ac8aaf;10025022;5;1;Bromley St Lye Stourbridge;West Midlands;UK;nao informado;International;International
b8eb68b4ccd930205716f805df2fd62933c55a3b5995a0c406e8ab16de83ea2d;10016564;4;2;PO Box 2338;Traverse City;US;MI;Central;Domestic
4af1e9b3bdd40ec32d23e41de8775587fa6eb22ddb2b885fa48dab1d48c9280e;10006917;5;1;nao informado;nao informado;nao informado;nao informado;International;International
1cef99126673267124d9818df21aadbeb8941a72476f0aeec2571fa10d894035;10000501;5;1;nao informado;nao informado;nao informado;nao informado;International;International
b5ad041408dfe64411f14d14803bf451576e13b93f93a9c403fca53b5f6cda2f;10023964;5;1;nao informado;nao informado;nao informado;nao informado;International;International
fc5ce44fff39a255b8dd0f15b44f1ade346fea76ce453992969f854b85707531;10021300;5;1;nao informado;nao informado;nao informado;nao informado;International;International
8a35c887da486e64c6ea00348b103f59e6429c29720a5a7781e503e9bb76b2b9;10020184;2;2;Corporation USA;Smyrna;US;TN;Southern;Domestic
5aea8365f67137d5cf85e43d7888c6b1fd1b8d004bb1fdc5314bb5c0b011d1a2;10021750;5;1;nao informado;nao informado;nao informado;nao informado;International;International
7afdda3a075a4778901b6ab037eea9116af37945e492372cb49b98c043420e38;10018628;1;2;12805 SW 77th Place;Tigard;US;OR;Western;Domestic
719a979cce6d104d01d7949104bfef2ebe2957f67e000ca98b75ed8087a3494f;10025049;1;2;13270 SE Pheasant Court;Milwaukie;US;OR;Western;Domestic
54e33aa3e7bc0b6ec966af5e7a310e1d9d8ddb8beff120a505247b2e0cb12d08;10022755;5;1;PO Box 86222;Johannesburg;AU;nao informado;International;International
9c1dc7ab353c4cbb9dc7afb811eb04b81f63103e5499bdfa1c034dd6c66ac9bc;10020715;5;1;Avda 10 De Mayo S/N;Linares (Jaen);UK;nao informado;International;International
20f2f5b7d30ba787fb5dbcfb7207e1eb56c5397ea3dea8a46b552fa0f89619fc;10025305;1;2;4260 North Nevada Avenue;Colorado Springs;US;CO;Western;Domestic
943bedf5433280055b46dc11020c93f75c84a506758faaac2a8cae14e06a8775;10013426;5;1;nao informado;nao informado;nao informado;nao informado;International;International
f471fb0e3e9a1951302cbbc2a82efd5b38ffcd5a7709a10030d420dfb228df52;10021179;1;2;316 Millar Avenue;El Cajon;US;CA;Western;Domestic
7aa1e7acd11dc7b6da48daec0a73d6fc77131272e9d59e5935de450694031f83;10023212;1;2;c/o Tom's Bronco Parts;Medford;US;OR;Western;Domestic
1b2b5b6fe6f4d40a7489f465dd70a91890e451978c2481b4e8fc32c7e4a36816;10023471;2;2;915 West 42nd;Odessa;US;TX;Southern;Domestic
fb4b094e5de2151d3aa06011919bf0909cd2d89019bb22b9256be60b1723f166;10027575;2;2;10400 Plano Road;Dallas;US;TX;Southern;Domestic
64496c706443d618731aa97db87044fca97064e689f06fc5e8052f9b9c1bab07;10026294;5;1;nao informado;nao informado;nao informado;nao informado;International;International
a6ee0002d631e5b6befd6c4c5bc4ce584785e4263ff87ac495fdb3c3a0c611ff;10026023;5;1;nao informado;nao informado;nao informado;nao informado;International;International
55b44c89648b144fa6043226376b9cb655137c9ebe4cb03b126d4ef425fb4034;10019420;5;1;PO Box 880 PC-112;Ruwi;IR;nao informado;International;International
c5f4417723ac9837dbe6bb1f69d227bc2350b64850850dad0626f2370e283010;10002520;5;1;nao informado;nao informado;nao informado;nao informado;International;International
9bc83e2952148a5c824f07e92b4bc9006feb32459a2315dff983289c189e851c;10011724;0;1;300 Ingersoll Street;Ingersoll;CA;ON;Canada;International
f8cbaecdf150ec4872ab0ba5e6b7f927d615f86f6899efd11e77d416715e3f6d;10018603;5;1;PO Box 12932;Dubai;UK;nao informado;International;International
b8774c0d7a78b7df6fa8cf4293f8bc24d21bcc1c11e2f45eb0da2eea3e937dc9;10000458;4;2;PO Box 840;Saginaw;US;MI;Central;Domestic
6a860dafd5191ff72ef207af5ca54b9911c05d95b2706d4d579b91fede6a6390;10020388;3;2;7216 Ritchie Highway;Glen Burnie;US;MD;Northeast;Domestic
a1cb5b215ad2b9f196ed999257e8695c1c8ec4b44bd1200edff9b7b2168c7bee;10003857;5;1;nao informado;nao informado;nao informado;nao informado;International;International
a179af65ca2816e45812bc87da4d820aca9cd491a7ea6703bfbf35242a6e2459;10020192;1;2;3248 Auburn Boulevard;Sacramento;US;CA;Western;Domestic
16d41de8c2242974d117db2cf21918942b9783b4efdd101163b5b8e93e855148;10022252;4;2;13907 S Kostner Avenue;Crestwood;US;IL;Central;Domestic
f46a2ae5574e234c0f2bad06d5973e33a12f5b5a0fbd70112b2489a59934a1fb;10025758;2;2;4532 Enterprise Drive;Oklahoma City;US;OK;Southern;Domestic
defa6871bd77658d81f3dbce227a315afbf0c2327c2b220a1d47e6dc2f9ddff9;10027340;3;2;63 Bridge Street;Salem;US;MA;Northeast;Domestic
0c504753e66049a090251214e6f3469f9143d5fc862ec28b91205e2046bdaefe;10004245;1;2;4747 N Channel Ave;Portland;US;OR;Western;Domestic
4913a309d87cdd5690046fda480a213b620cb33dd22c1148debd68399373381a;10007121;4;2;5711 West 36th Street;St Louis Park;US;MN;Central;Domestic
1d06802603991cac19e2a46990715f9fb7ce4113b9be20cf60b7387ff48cb80f;10020982;5;1;nao informado;nao informado;nao informado;nao informado;International;International
4408e2e6ed97ae8379531d0d30cc60b341ef7c1632d48746ccf0f3436232a59b;10000496;5;1;nao informado;nao informado;nao informado;nao informado;International;International
e6710c378e185e7b7b6ac9717a066382fcce2b47c7128c9c6dfd8591f3036109;10023759;2;2;106 B David Green Road;Birmingham;US;AL;Southern;Domestic
ec9129f8d292eafeacea60ca8c944fd3603414aa042ee7a9b49f75144d2ba6b6;10025037;1;2;725 North Twin Oaks Valley Road;San Marcos;US;CA;Western;Domestic
730366cfdfadf3bf5b71ca8849773d895be7749d6f5a18303f8546311117f410;10025036;4;2;1920 East Front Street;Kansas City;US;MO;Central;Domestic
f5b6ad184d53f6644e0c69d44e4cd28aef698a7fe651eb2c6fc18ad0b837d2df;10025583;3;2;One Industrial Complex;Nesquehoning;US;PA;Northeast;Domestic
6ebf73ba38ded3ff3055c53d0b5553e3c2881fed1e739d587ddd92c19395978a;10003554;5;1;nao informado;nao informado;nao informado;nao informado;International;International
9cb1f88c2d057f59c65222397514ab58f15a3d306353d192bd8e75b6f8ee0baf;10020907;5;1;nao informado;nao informado;UK;nao informado;International;International
110cdea85b5a2030e544db98ac33d3358cd3330d2e0a243f6469a108da3f46b7;10014803;4;2;3056 Eastern Avenue SE;Grand Rapids;US;MI;Central;Domestic
6e2d3bbf1f8320c408d2690a068c844201f1a5933c7ef7b83de51050f14f6e87;10019400;4;2;861 West US Highway 30;Valparaiso;US;IN;Central;Domestic
fcdbca57af346a04c28447e7bdc746ae16776bdff914e6b50cd08e4a75cde185;10025237;0;1;Central Accounting Service;Oakville;CA;ON;Canada;International
da8ef6c8e462bef5190b328a906999b10670ecec00d78918c3086a0aa9f73ff7;10000486;5;1;nao informado;nao informado;nao informado;nao informado;International;International
0edd7ee2e9d8a4408643b073f2f89859a9ea8e28cc5c475c88461a30c3099915;10010897;2;2;PO Box 588;Whitehouse;US;TN;Southern;Domestic
0cb813538176e11b56d986cdcf5314ff5c32b5fdb7f0e399cbcc9cc897415025;10026006;0;1;308 53 Avenue SE;Calgary;CA;AB;Canada;International
42d6e37e12d3d4501f8ca63d233b8aeaafd08242235dc89a48f12c8d30242a1c;10022687;0;1;5325 Still Creek Road;Burnaby;CA;BC;Canada;International
cb41e3e45b82e218ed0b6585ae2444a2c211949261a47bc29bf616cf530a4538;10010912;2;2;PO Box 849;Fort Smith;US;AR;Southern;Domestic
9061a456c29a5d3043d0572b6c8a7143eb5e346c083fc062c0aafdbb87640789;10007448;5;1;nao informado;nao informado;nao informado;nao informado;International;International
08c27aa1d7d7b6b81133440f748d27d957a5889ee122bfa8cb519ce1f479c73f;10021415;4;2;100 Gasoline Alley  Suite A;Indianopolis;US;IN;Central;Domestic
185adae5180c61967ec76cc1b687f0c49d46e1f8c838d7c5bc1b6454649ba239;10019066;5;1;nao informado;nao informado;nao informado;nao informado;International;International
be0c1da9a457396cdc006d8e5e43feec0aa88b71a0d4c336448b67e45aba9dc4;10006846;1;2;1023 Kansas Avenue;Modesto;US;CA;Western;Domestic
fcef1065ff14f821b848a1abc4b04798186749563c18ae753faff566ec138862;10025248;1;2;730 North Central;Kent;US;WA;Western;Domestic
0181adb3db0d4e0e7559fb840984d8b44eb86b624eb823b7c7529d176434d1f6;10025039;4;2;9049 Tyler Blvd.;Mentor;US;OH;Central;Domestic
d1cbbcad90e8a86d39d53fe00244f929b7a68a7f8d772e8557c32ccd04f410db;10025287;4;2;PO Box 366;Brookfield;US;WI;Central;Domestic
fe332247ac51a0c6f44db535df579ccef99d207d68c58d48ed62861990c535f6;10011355;5;1;nao informado;nao informado;nao informado;nao informado;International;International
5da09826bc4a326c9d28aa6fde909198849c88b711eaa3d75b66154b27383ea6;10013472;4;2;3343 Shelby Street;Indianapolis;US;IN;Central;Domestic
7cb1be95e928f22e01efebcca4615317500d0809738385ae637ef9189bea27bd;10026038;5;1;nao informado;nao informado;nao informado;nao informado;International;International
392d16748846ada2d446a1e1473ff65726f5bd9809be445c0686ad1dea1a3230;10007564;2;2;1287 US Highway 59 North;Cleveland;US;TX;Southern;Domestic
d77dfd7c4e6668b079ce657724c5bec60b4e36d65e64444ff8ce388f7ce9c103;10002149;5;1;nao informado;nao informado;nao informado;nao informado;International;International
324b125c78905552b5e5e457b9ae54b81fda0cad7ea0a8ba853101477eff4125;10021305;5;1;nao informado;nao informado;nao informado;nao informado;International;International
02e6e74bd8566c720b9080b43d3e1c663a041255b56741abd5d43a05d50fb68e;10025778;1;2;1143 W 2nd Street;Pomona;US;CA;Western;Domestic
f33371396502ce82b1e4a722bc419bdcec4ba8b987fe3fd74026373c0e3b8133;10025284;1;2;19745 Meekland Avenue;Hayward;US;CA;Western;Domestic
5f6c29458461e70cef498b37d4a024aee5bff2a81ea83e02d57dc69938603116;10016549;2;2;PO Box 6307;Jacksonville;US;FL;Southern;Domestic
4207ae4e78466ff0e05265fb747ff742910008ff790b1744ce46769699d31a77;10025549;3;2;PO Box 21;Shady Grove;US;PA;Northeast;Domestic
5c31a18d820011505a11ca47786e7e77a26e3f67df30772af2d2b90088341657;10009657;3;2;12 Lexington Street;Lewiston;US;ME;Northeast;Domestic
c9349e886eaf9291895399aa764774539e0e626eb3c4732cd232389ee4bad36f;10019952;5;1;nao informado;nao informado;nao informado;nao informado;International;International
644548718cb1c0b5a1d4aece023a36f527a29e6a1525b30a32c8fb54cc33a36f;10006836;5;1;AV 6 DE DICIEMBRE;Quito;UK;nao informado;International;International
3250a75eea54cc4c0a59dc0e01a4334b55e5c0ef34110d0ef13d7c0b65d5d13a;10002159;5;1;nao informado;nao informado;nao informado;nao informado;International;International
823e696dd074b2b7d01458268cf522e28550688b32b44c1cdf82c8eb51b3779a;10026606;4;2;Central Accounting Service;Dearborn;US;MI;Central;Domestic
6ca1ae26bdf747c72c5e14eb9ff3b7933380ad69db98d8ae4af4b480a8157603;10006862;2;2;4410 Highway 80 East;Pearl;US;MS;Southern;Domestic
f2d16055acc49e35672a94e7be21fcb91c3bf734f5bcf736b629889587909757;10007536;5;1;nao informado;nao informado;nao informado;nao informado;International;International
75392535a4db9515c1ffbe391b7cde59ef91e8ecdf86a4e3da2792877beff421;10021184;1;2;14312 Stenbock Way NE #F;Aurora;US;OR;Western;Domestic
41ea7a04322397e4902640f58e4fdc46ad35fb0653ec09916c48680f7269c473;10008381;1;2;10023 128th St. E #7;Puyallup;US;WA;Western;Domestic
0f1718b2562e360cd27443dd046618b1862a9de71a52bf4a1995c9b24ea8086f;10017036;4;2;580 Yankee Doodle Rd Ste 1200;Eagan;US;MN;Central;Domestic
837444a34d28ef6d71c4fe61194d2707c79c6a6c717438dd6ab78cdfb7fc35ea;10016047;2;2;975 Main Street;Nashville;US;TN;Southern;Domestic
2aadeed9531f1aaf6dcc47dfe45eca4f6b3110b573b6d6b6a59aed3c7af508f3;10007123;2;2;PO Box 194255;Little Rock;US;AR;Southern;Domestic
c89bb7037a494d74381ef4c9281b4d6d62af08bc502ed45e63987dabae675d97;10022201;5;1;Av Blandin Chacao;Carcas;UK;nao informado;International;International
5a8018ec09b1e9450e22b30914475b27d7f4b06f975b3174d18e3a525dfc8ac3;10002114;5;1;nao informado;nao informado;nao informado;nao informado;International;International
7f4e37983111b77bc44fba9d483e5abd66cb5ab4b8c158426c19b6024d90869d;10011546;5;1;nao informado;nao informado;nao informado;nao informado;International;International
b801cbf9704bf9653429a4560b35b6dcb9448e14bed85bf23e1ea983fdb417d6;10027370;5;1;General Pardinas 112 Bis;Madrid;UK;nao informado;International;International
0ef2df9068f96d9520c02d4327b50a8bebfb7a77000c198b42b996cf97273d85;10012761;5;1;Av 6A Norte 25 N 43;Cali;UK;nao informado;International;International
29af45f235047e712ed6cfba2ee5c543f00222c24761835981b7e31e6d4d542a;10000473;1;2;3290 Monier Circle #100;Rancho Cordova;US;CA;Western;Domestic
583e2bef4dccfb45f5f1a6cfc29436939837a9395a05dd7caf8507f1a31e299c;10010698;1;2;17010 S Main Street;Gardena;US;CA;Western;Domestic
2459fa53cadf611ff9d3cdb4816b2fdb5364e64cbe0d2ddfe53cd5b83a9c0f0f;10014779;3;2;PO Box 206;Fairview;US;NJ;Northeast;Domestic
b2acd00456656f4c8f27cda2a3e4af6bd6eac2c79a22d006c9fb7bac1e3e7e25;10017290;5;1;Transversal 49 No. 102-00;Bogota;UK;nao informado;International;International
b13bd9da967c61ec76c030cd7366a5e7b6339363f4ac53942acffd2d7b33dfb7;10008593;4;2;PO Box 99;Highland;US;IL;Central;Domestic
8cca6b08411c12e393d4688ec24cebc1e7caffaa2e59dbe889812b56aa892917;10021223;4;2;Michigan Truck Plant;Wayne;US;MI;Central;Domestic
4c6d35d9fb46089e05d0f0fdae9940c04e59a835ad1b1546e1d24a2ec2ab063c;10026336;2;2;PO Box 26;Columbia;US;SC;Southern;Domestic
79e72b60519e589d8c4e5990dcbbb2697b58932a3e94fe9d7d30831a5880cb08;10025771;3;2;Southern Maryland 4 X 4 Inc;Waldorf;US;MD;Northeast;Domestic
7f8bed16cf560819f84158248ff54602be3ecf35d8e2a85861ca21e061ca914b;10020962;3;2;7320 West Market Street;Mercer;US;PA;Northeast;Domestic
aa12be13521f3b355f5734f0d949900c025c721cf38103608ee116c84b2d6f4b;10022764;2;2;2610 NW 10th Street;Ocala;US;FL;Southern;Domestic
4fa9fd8064e1b1cac44fdc10990ebe76587fea159e0453a2816428a3456ca529;10019388;1;2;1101 N College Avenue;Ft Collins;US;CO;Western;Domestic
165a968a0c8b9d8d3842e25ee56b2d9dac00fe995ec3f7758e3a31869a331a70;10014469;4;2;Accounting Department Service & Parts;Livonia;US;MI;Central;Domestic
a99afbbc8093d395ea2b93103270a7b0a3b4f38aa874ab7cefa3e098677c4e9f;10002969;3;2;12000 Balls Ford Road;Manassas;US;VA;Northeast;Domestic
05ab7af10d353ad863cd2d3abc93fcd9fbbb3875120e37b9877c4b72fbe89141;10012885;5;1;nao informado;nao informado;nao informado;nao informado;International;International
91134b81b3a09e2d2441791bb77c5a28fa28aa7bfe93c6f53a32abbe5817a3d8;10027381;1;2;2649 R W Johnson Boulevard;Tumwater;US;WA;Western;Domestic
f5f7509954107bde2456e3182fe64b77e0313618f78c6548416291cb6719f0a6;10023489;1;2;3248 Auburn Boulevard;Sacramento;US;CA;Western;Domestic
c78b325f09d8e4a95cbfe818761e2306202c77ab58ee15d94fcf79b1ddfdce2a;10022456;1;2;3340 A Sunrise Boulevard;Rancho Cordova;US;CA;Western;Domestic
f44db50c6b2ae3a7a6ea147e73c2d9d0f445974483098f877afcf08ec807a1c7;10016807;4;2;Attention  Accounts Payable Department;Overland Park;US;KS;Central;Domestic
7503dd83de1fc9d10a6f43299eafe68ba4bcb89cbc3e3ab80c8f412b742ce4c1;10021139;4;2;PO Box 3382;Livonia;US;MI;Central;Domestic
83e9570a2e9bf44f7b0e6788ab93ebfee49ea7ff5dd580d2c05f8f84135be10e;10022732;2;2;PO Box 900;Lake Hamilton;US;FL;Southern;Domestic
fceb81d0beb99c3301c56bb649048c5d1eaf125c1312e75e06d26d15fbb8aab9;10017314;2;2;8901 Montana Avenue;El Paso;US;TX;Southern;Domestic
3f7b4f3cb0404dc58b5f24070d2f2c9098c6dbdb6524c7266ba46a412b12daa1;10025038;3;2;PO Box 568;Mechanicsburg;US;PA;Northeast;Domestic
dfa059d11013151f69be688954965f729e9e0d9800d3f955c4ae408477812795;10007120;1;2;DBA Pronto Jobbers Warehouse;Rexburg;US;ID;Western;Domestic
c782b801e3cab2eb9e5a9cace8ebe33d83bbe2283ff5419c109f78bec13e3298;10022490;4;2;Attention  Accounts Payable Department;Overland Park;US;KS;Central;Domestic
ab64090f363aae8a3d840ab13487025e1c81694d19a2baaea901e68c23a14169;10026268;0;1;Unit 403 - 17665 - 66A Avenue;Surrey;CA;BC;Canada;International
bd44023797288db31b3e7c8adddd02927a111e735ef038e78a477c9ee6322aa5;10013538;5;1;nao informado;nao informado;nao informado;nao informado;International;International
9a0e84e21d9ceb4bc435020a8c9265a528519f66496e94d2a2efc033dbd699de;10013080;5;1;nao informado;nao informado;nao informado;nao informado;International;International
42624428d4ae5b6c8a62fbf845bffb6a403010320800e7f2a1783be31a2c2878;10010865;5;1;nao informado;nao informado;nao informado;nao informado;International;International
3f18329ba287b3dc7dea8be6e31c509571968de8cb37491ce887bd7af405cd28;10027356;4;2;910 North East 4th Street;Grand Rapids;US;MN;Central;Domestic
c3d4db2189f9bcb248d3edaa4ec30d8b6110ce68845dd64e403883b2b1c3bfb4;10026348;2;2;PO Box 220;Mebane;US;NC;Southern;Domestic
afae3aaf5668d35a61a4d46af8865c6c612a889d953cc0c472835e2490928662;10025418;5;1;nao informado;nao informado;nao informado;nao informado;International;International
b8b0075832a3e58873c470aeb5755aee540d2b773957f8ee04ea27c1abe00715;10025288;5;1;Kirchstrasse 39;Furstentum;AU;nao informado;International;International
738875ca8743e33b4e1bdcbcdf5888d54729c6b23351090884e15a1bbaf7608a;10000466;1;2;3213 Orange Grove Avenue;North Highlands;US;CA;Western;Domestic
42c51cfe4c9bf0d18cbb9a97ec1e58f000ad4a3db521348be329cb1f43531280;10020364;5;1;nao informado;nao informado;nao informado;nao informado;International;International
bdd55647f4f2d22a669fc21ccc8f8d897bc0fe78cab8d0ac743f788d71c52063;10007591;5;1;Hiekkakiventie 7;FIN 00710;UK;nao informado;International;International
0ea071e1c637d4e5bd45c3a78c4d02737bd13fe7a97cda79fe6ee17a06090b65;10014047;1;2;1510 Merced Street;Fresno;US;CA;Western;Domestic
0fb4777b5879b581391882eaee098f850cab00094891a72848699db2ef7e4cce;10021494;5;1;nao informado;nao informado;nao informado;nao informado;International;International
61ebc99333d4e4207accd9d7172d24dc0b0913dad874fcafa804e55284da13ba;10013312;5;1;nao informado;nao informado;nao informado;nao informado;International;International
a76747e9bbf9c7a264ab812c1e08f46982a82ebb8efeee04d1e68f78953c2699;10022450;4;2;Attention  Accounts Payable Department;Overland Park;US;KS;Central;Domestic
5d46925943317c63c1349859e5abd66d9dd7458288519d2dc65d5d47897ae218;10025040;2;2;6127 San Pedro Avenue;San Antonio;US;TX;Southern;Domestic
6dd5637235f5244decbea96f2dbaad074bc86195a6b2ecc9e746bd5ae23a12c0;10025299;0;1;6260 - Place Northcrest Suite 305;Montreal;CA;QU;Canada;International
88170ad12666673a554031fb335b7429fcfb148f900bfe4e1d1a07a266413ecd;10003882;5;1;nao informado;nao informado;nao informado;nao informado;International;International
cfea6f03f7cf22a1b81b1674ebc44444676f70f6d540f3d3e704a063e73998f0;10026334;5;1;nao informado;nao informado;nao informado;nao informado;International;International
9b59ebd4711ceab7db035b8c98e456b21e3198d82a9201852fcfe2405ed3edb2;10011981;1;2;PO Box 2640;Missoula;US;MT;Western;Domestic
b086aa8cf64d076369aa9ec90614307ee65bd421d76815b274bc345c17f9eeb5;10021286;5;1;nao informado;nao informado;nao informado;nao informado;International;International
94840fb1f85af7380c6a100c4c86109bc36d96876ce42743bdf75590ae389988;10025247;3;2;390 Fountain Street;Pittsburgh;US;PA;Northeast;Domestic
073cc150b8f2ef93a366caa5d3fcb162e748d268eff3ed65f9661d54e570c7e0;10018371;5;1;Solec 44;00-394 Warsaw;UK;nao informado;International;International
8dde447c1c5e1ac108dc49c938e14aad7824ed26bb971174f6300b805728ed92;10013061;5;1;nao informado;nao informado;nao informado;nao informado;International;International
3fcd02472d9b23768f1279b66da03c1cdbbdc5f958fc774203a822f08bb9c6f7;10026078;4;2;PO Box 461090;Bedford;US;OH;Central;Domestic
b740278f5cfddcbfbae502a9c8388b36517d847cfc0a2f6d3b41267c9bb207b8;10012226;4;2;Worldwide Purchasing;Troy;US;MI;Central;Domestic
df1815b6e53fcc545ab91c059fe51b8d28fdec3a880f39f802d039d8139a0e49;10025021;4;2;1151 W Main;Depere;US;WI;Central;Domestic
560a0d8041b42f2f7b9ef85e4171cf28086285fee975434b91b15bad4004454a;10011521;2;2;32722 Highway 45;Okolona;US;MS;Southern;Domestic
200b657cb7c4bda9fd12877725693379aabec25ad786fad240f5a173f9efe7ef;10025300;3;2;Attention: Paul Grady;West Sayville;US;NY;Northeast;Domestic
0984a10153a88729e783081b01768928f8f08ac703c376580828c3b8d4289dda;10019105;3;2;6029 Mechanicsville Pike;Mechanicsville;US;VA;Northeast;Domestic
f5cf12246d83a55729a2e0109cb6bf5c020f05ffde90b6625460936a0e6afed4;10020181;5;1;Am Schwimmbad 8;D 95326 Kulmbach;UK;nao informado;International;International
1319050341a05049bfe36e040ffafee2934e33e4c946261df18faff5b52097d9;10012158;5;1;nao informado;nao informado;nao informado;nao informado;International;International
dd7fdcd5dd575df3de5f10d2f75177d0fbc1960ad271db377c8e8c449a4ff6b2;10023703;5;1;DUMEN SOK. No:3 D.9;Istanbul;AU;nao informado;International;International
9a9249ce06c83ae64c06e9e1fa3ba5c54062acccc1536356cfab049b1673785b;10013509;4;2;207 North Scott;Joliet;US;IL;Central;Domestic
87539e958cac1386ee516116974d53e4eff52807983e99a0598aece77e08f718;10027053;4;2;PO Box 68;Raleigh;US;IL;Central;Domestic
7413294a51e2a27a47f8b849e39e4e64285aae9d36bcc4c0008db04602d309af;10019150;2;2;Jacksonville PDC #21;Jacksonville;US;FL;Southern;Domestic
aac73a2cdf8f0199f197d629f664728f6dce7684ee80a027abad40dc0bc673d4;10009672;1;2;Attention: Accounts Payable;Phoenix;US;AZ;Western;Domestic
89024ac747594c043ca0e304b16a9aeac36f98643c3beb1884fdd410dc7bade2;10019109;1;2;Sacramento PDC #13;Sacramento;US;CA;Western;Domestic
b94d7add6a0141be6654cb2e60ae76fac93324d319a161018c765e6100b9307d;10016045;4;2;1051 West 7th Street;Monroe;US;WI;Central;Domestic
2267e8f437f0af3a3f2322ba8eac772b566f3451cf4c92774c9010fef63a0688;10015011;5;1;Svarvarvagen 14;SE-132 28 Saltsjo-Boo;AU;nao informado;International;International
40d48a7e2385bc145f130de7e6c993c46bab69b7ddb31175ee3451ecd232b663;10000481;4;2;Box 5516;Chicago;US;IL;Central;Domestic
b00edece0ca2d3d6b5b27819930a4aa0c9d1d2ee928f6c73f1f095d174fd24a7;10017585;4;2;11811 West Silver Spring Drive;Milwaukie;US;WI;Central;Domestic
525d05d5dbb82f9cc587b0788480d83d7c0e58f3bef93d84501b008e2af3ff2a;10009697;2;2;4455 Dardanelle Drive;Orlando;US;FL;Southern;Domestic
6e52becb131d5a704887be9b5ef07821b47130ddbccf8a9f1f269b2ba97de088;10016609;0;1;Unicity Distribution Systems;Winnepeg;CA;MB;Canada;International
19d1a1d1fe01b1adaeb01589ef072107176f18cbdacf96007f6fe4046299381a;10021239;5;1;nao informado;nao informado;nao informado;nao informado;International;International
40e14b4135e710379440c8c46e25de0db0c35bfe2527f2f24483a5e420fa4a9b;10021380;5;1;nao informado;nao informado;nao informado;nao informado;International;International
b04586c164366e748fe8ffff77b3232d3463f30eae35a8e79d30615584e524ab;10017553;4;2;PO Box 660;Ottawa;US;KS;Central;Domestic
a63778395406335a8cf373dde0837dc60e0fd4f60684d3473ba1ced1da1ebcb7;10013127;5;1;nao informado;nao informado;nao informado;nao informado;International;International
57aa1c5304c58926f682de1cb2affe98ec8f01ecf1b2aa7619c4842fd28e6555;10001786;5;1;nao informado;nao informado;nao informado;nao informado;International;International
355de821fd3ee01b70359f1eae79386ae12d77e93269666b7fb90313ffa013e1;10012234;1;2;PO Box 4658;Hayward;US;CA;Western;Domestic
355a0566be1278225c1862fabfcd46e33c9d8a46146362fd02dfba6ee65b1473;10024010;4;2;Attention:  Accounts Payable;Mitchell;US;SD;Central;Domestic
41b431be2c814e29d1141087a3ffd029253ebd95071ea8432f45827376b62c8d;10012715;3;2;44 Tunkhannock Avenue;Exeter;US;PA;Northeast;Domestic
b34f4325c5f20861f15510152e8c476ffede4a2886c7c8965e4bb0a01210c408;10000488;5;1;nao informado;nao informado;nao informado;nao informado;International;International
d9773c8a677c3f981b5856a454df9ee51507f5936647b7c4ee325fac05b78b8f;10025239;5;1;nao informado;nao informado;UK;nao informado;International;International
314fff289b59ba5f9d6adcb59bdb07d0bf7bf8cb2ee9078a1a178f49096daaf6;10011345;5;1;nao informado;nao informado;nao informado;nao informado;International;International
d6b8d44ae9e0eb0ac4d7fdb03c4dfa90571f4c3babe5b5d7f260b5a669642b76;10022423;4;2;12110 Best Place;Cincinnati;US;OH;Central;Domestic
0edbee5a5111157818eb2a9a4024495d5f6b561ff9014d636d133722e662b055;10024725;2;2;PO Box 174;Jasper;US;TX;Southern;Domestic
6286b20545bf2fc05bf9edbcc97948f6f5681b3029989b5f704ff2391c40a264;10005043;5;1;Paseo Colon Calles 34-36;San Jose;UK;nao informado;International;International
f2338b8804184b97d7e42cbc812800f96eac0d7b96fbcd9d83e1c781dd3c0cd5;10024022;1;2;9950 Jeronimo Road;Irvine;US;CA;Western;Domestic
9efc1db14440b82202db23bea060997d8476cc910222b6dbb0b7df2320aab90f;10021911;2;2;Cnr Avalon Drv & Tasman Road;Te Rapa Hamilton;US;MS;Southern;Domestic
4e3235f4344b2de1a02ecd9e3076362b7cc1f339eaa7191e03df454533031e91;10016303;3;2;60 Depot Street;Buffalo;US;NY;Northeast;Domestic
6001b72336d4875228d75bae5b5755a6c07eb9c3d9d216e653a0e64fe63c0ea1;10011018;5;1;nao informado;nao informado;nao informado;nao informado;International;International
7a5cfb05979fa974383c323e93b8179452774c8e1513adb90f8d42f8b23a1708;10020193;5;1;nao informado;nao informado;UK;nao informado;International;International
d69a02380dadcae8bd65fff5a742e70c2e983d7e0b6301d50c36ef87dc325bc3;10021175;2;2;PO Box 5418;Johnson City;US;TN;Southern;Domestic
3acc4340395f7fcf4afdddb615d8d62e6a68cefa7ad42c49a5725b5c21d497c3;10008638;3;2;301 Iddings Street;Milesburg;US;PA;Northeast;Domestic
f15a8356a89ce4fd9c99c8c27bfa5a54340941dea5e6b9c8c7e66b2f688054e1;10020515;5;1;nao informado;nao informado;nao informado;nao informado;International;International
a733a1152453db46518e88dea4dd95ec1f15ea46081436b36297a8744a7f31c1;10000472;1;2;8000 Haskell Avenue;Van Nuys;US;CA;Western;Domestic
9de5ff562360bf807f3ea40de8ea438d21b0c4fd25f100703760f17dfcf34c08;10025291;4;2;217 West 3rd Street;Dover;US;OH;Central;Domestic
35309f3f7f7fcee1ca0694a58c43bb53d281c67edb6529b41bd5b844647ef40d;10002139;5;1;nao informado;nao informado;nao informado;nao informado;International;International
2bc67cb7b61a888e969496db19d954b785099508741f3d2525adcdf6924c37a2;10011499;5;1;nao informado;nao informado;nao informado;nao informado;International;International
9a4028c25ff2ca07a62df4539e8bf86bdd903da9f3f1e1252e4a0c31c15a86a9;10014533;4;2;Chicago PDC #22;Aurora;US;IL;Central;Domestic
feefe9d77a200ad54165fa62148dd7c81fc71d8082cb1d26ec0bf9b00f1c03c2;10002765;2;2;4760 NW 165th Street;Hialeah;US;FL;Southern;Domestic
fd70d73f1ccf5274e84cae98447911bec28123785682ff6a4a0cd7f08cf80018;10009907;2;2;PO Box 2143;Elizabethtown;US;KY;Southern;Domestic
347cdeec43f761f7bc7e0560dfb532b351983193af543490bd510eebfc89584d;10015267;5;1;5750 Ringe;Sollinge Molle;UK;nao informado;International;International
07df93ddb55ad7c50aad69f525e7cb38d37aa4e06520bfd88e72bbda9f2586ab;10019812;5;1;nao informado;nao informado;nao informado;nao informado;International;International
a919cd0a6d269a9a84b9d311df93181627896fb8210825c66e07d3a539a53149;10005236;5;1;nao informado;nao informado;nao informado;nao informado;International;International
0f036279dbe7098b9eb91aa73de82fc41c4d058230a05c40ed782f30ca8d7ab5;10025289;1;2;3631 South Bagley Avenue;Fresno;US;CA;Western;Domestic
9dc0630cba512b3893743b3e3c052b29f1066b7ba60807d461f7de3ccab85681;10025250;2;2;8503 Hilltop Drive;Ooltewah;US;TN;Southern;Domestic
9a50009255fee55c8f1f5c2cfd7b211ff07a8c556c2eb4fc56b896c929fef167;10016780;5;1;nao informado;nao informado;nao informado;nao informado;International;International
f9aacb6f7f1d4edd16f46bc0fd000d152021f35568f4ea00bcdd5964897fbfe8;10025264;1;2;3545 South Richey Boulevard;Tuscon;US;AZ;Western;Domestic
a16c3a119044c4601316b4ba454784e85a58a0635ced5ecaf16f6634b8c0acb7;10026861;1;2;2280 South State Street;Salt Lake City;US;UT;Western;Domestic
6072e360ae7ac846b44afb02d2874dca6e686ce2919464be6891ae9f31519406;10026560;4;2;Central Accounting Service;Dearborn;US;MI;Central;Domestic
df1d50e8704ac1f91cc9ffc1d132b2bff8607bb40c959fe912de23dbd8cd3806;10021158;0;1;#9 - 19257 Enterprise Way;Surrey;CA;BC;Canada;International
4ad8709c97a14470822a1dce759e42d4dc5c2089da83108f7302c5eac4a79c95;10026365;5;1;nao informado;nao informado;nao informado;nao informado;International;International
e9d764a0fce0eabc1da9c56389a8fde2f2f95a244fc6408aae7676c40d55a500;10002154;5;1;nao informado;nao informado;nao informado;nao informado;International;International
3d64c5407f95624a1af41478ee128a7829d5afd684e45b219ee8b7c4a1b28d11;10020281;5;1;nao informado;nao informado;nao informado;nao informado;International;International
c68462844027b9fab710bf78f13c8cbc1a4cd9fad18e6c2e70d27746fa429848;10020915;4;2;2600 West Route 120;McHenry;US;IL;Central;Domestic
2f0bb3113adfcaf7c8db827c3aa549a36fd3066c44e978a3b5929425c114ec03;10013188;2;2;PO Box 36409;Charlotte;US;NC;Southern;Domestic
5afcd7f9143b80a9b042ec68d53b0234b7a808c30a079956723aa5aed4491e92;10010884;0;1;170 Industrial Boulevard;Boucherville;CA;QU;Canada;International
d7729b9151f51b6c16b4789e1d33ddd93cd1874beba9c86748233c828930219c;10010832;5;1;nao informado;nao informado;nao informado;nao informado;International;International
360b917e3ac7c80e3cb068cfe095e672319bb2fd770b16e1233fa9518a195daa;10026521;5;1;97 Banawe Street;Quezon City;IR;nao informado;International;International
c42029e2828f123ee5a3f82b298f97497c4a7b53fc5899ab251754969f477bff;10012328;5;1;nao informado;nao informado;nao informado;nao informado;International;International
63e5095905c2b14aa2d8424c0eef0ca153ad593d8b532d40adffa57e577def21;10005006;1;2;601 East Gowen Road;Boise;US;ID;Western;Domestic
e99ebd2ec8ce44c5cfe411accdcec729c7f26630c797e409809a3ae86b6e3374;10000460;2;2;709 Rivergate Parkway;Goodlettsville;US;TN;Southern;Domestic
7c75e4b665bdda255ca6b6bb3a7cc65dc41b1effa240c55c06977c79555fd3f6;10026299;2;2;334 North Hall Street;Dallas;US;TX;Southern;Domestic
52ba8b9d5a107e34a11ed7149c05e3ca7c9cf87a8d401489cfcc8e9aa86f3fb4;10020868;5;1;nao informado;nao informado;nao informado;nao informado;International;International
784269bab35d7a8b24488beb9699ee2dcfa750a966dfa0be517cb6d731e3af52;10025061;4;2;PO Box 80509;Canton;US;OH;Central;Domestic
6dd208afdfcfa432da56b7441bb0a5753cb35b3cbf9f1c441a16e890efcf0ab1;10012161;5;1;nao informado;nao informado;nao informado;nao informado;International;International
dd06e3ce303abbea3a689fdbf583ec92a9560f4457fddf46217b8622f8a5b67f;10010990;5;1;nao informado;nao informado;nao informado;nao informado;International;International
c215298616130c355b693f87059e890e48ebe40e0d03abbd735cd3b56ed6f61e;10024930;5;1;nao informado;nao informado;nao informado;nao informado;International;International
61e99281f8ebb480bc70b1339ee8a32be1e93bb3c6c067453a57ea69a6f9835f;10022730;4;2;21533 Mound Road;Warren;US;MI;Central;Domestic
76a01b55c5d6b5807699b3a600e35599b78a7e9782fe78dd6d01684193cd33fe;10010906;3;2;5702 Industry Lane Unit B1 & 2;Frederick;US;MD;Northeast;Domestic
c603d91a818b488151cd0808bb3e861bf060ccd8fe2013ad61059908c235d6fe;10014802;5;1;nao informado;nao informado;nao informado;nao informado;International;International
549a23098ecbd2b444afbe75a2274a647d52785ef25fd38581ea2b1a8b2c3b76;10023511;5;1;Bellsingel 2 1119NV;Schiphol-Rijk;IR;nao informado;International;International
48abf877443ecd8f0cf8e17606d883bedbaf00cd215e0cf7adbe4e6c3f03ca37;10015325;5;1;nao informado;nao informado;nao informado;nao informado;International;International
07a76476b29a2f11c13e52ebfb3ca0d8b2ee4c758a75596db8571c9cf6719f05;10009631;1;2;1477 Davril Circle;Corona;US;CA;Western;Domestic
80fec6c3b9ef1fada0fb39ed9d6187f40189ae7e6a4de660acbdeff2365708a1;10025814;2;2;5300 Glenmont Drive;Houston;US;TX;Southern;Domestic
3d88c5adc4ef568731f161fb47823e5c4241cb56e81129f74cf4364b7eb78e2f;10007258;5;1;nao informado;nao informado;nao informado;nao informado;International;International
4955524aa8d46d1b9d862ba8dd21595371025f2803fbb38fa56f75dbd47e6d9c;10002506;1;2;Attention: Doris Nielson;Salt Lake City;US;UT;Western;Domestic
f390ce4137b09bb0182bbcc5dcebd6e2d21bd54b4f4bf2316539e19b3cbe7d7f;10020662;5;1;Kelapa Gading Kirana;Jakarta Utara;AU;nao informado;International;International
e71cabab562c4c29a9961d0739c41fd536a5c854286a42fcdd085993ef39f9a0;10024262;1;2;124 Hegenberger Loop;Oakland;US;CA;Western;Domestic
462c526bc577dc05db151b4028076dfbad3f2817d79d41fa46b3e1855a3c6941;10010974;4;2;13296 County Highway 00;Chippewa Falls;US;WI;Central;Domestic
c27356dbd48a6f7b80712eaf60c48ffdf3672e3a20366f35ca053ccff60e4390;10010914;4;2;Attention  Accounts Payable Department;Overland Park;US;KS;Central;Domestic
df77cddb52b4e4322e32612368d8a18a8498c8e47589f47cd6b39dc9a1e3b2ee;10012422;2;2;PO Box 510;Saginaw;US;AL;Southern;Domestic
661f50566714961d7721a6196ed7c4e98995401329f0ff9a62eab68c8824ec38;10012927;5;1;nao informado;nao informado;nao informado;nao informado;International;International
6d14367bac98a4cd5159e5cac1d0c49c5ba32f76ff72c277ad88f7db3dd19218;10024743;1;2;907 Cole Street;Enumclaw;US;WA;Western;Domestic
588badab44e7f43cfef7e6f0361c8e4fcddb44b6e919e19833607c24aeb2f71f;10023778;1;2;PO Box 70;Hillsboro;US;OR;Western;Domestic
14b287a908e35aed36ecc4310411601dbe4b3c524c7b467b3deeb598ed216569;10020927;4;2;One Cabela Drive;Sidney;US;NE;Central;Domestic
95e33a79a1505c80a337e9a52513fb8aa900cf7132cabdb5139f4b1e1ea2707f;10022678;3;2;PO Box 24217;Richmond;US;VA;Northeast;Domestic
1867493d2c643cdd970dae36d2ee9374abe39d7f7b8ee144ca3f7d33e5665e12;10022431;3;2;845 Third Street;Vinton;US;VA;Northeast;Domestic
065fb452a56ef763874da5db746690166035811f510e9223cf5541ce02e67c2d;10011732;5;1;nao informado;nao informado;UK;nao informado;International;International
bb84fa734cedb825bd7373ece4277f4f99b3e8a260159f889c9c252a94e378d5;10021107;5;1;nao informado;nao informado;nao informado;nao informado;International;International
3e545161d750d79b7868a23ad598f2b732862177bac1e0d3e1a5f2b6b4b83b92;10020227;5;1;nao informado;nao informado;nao informado;nao informado;International;International
68ebb0ea36f4fbe6275078960226867236cc49177a4c31a35fab217982321d57;10020449;5;1;Attention: Rodrigo Yrarrazaval;Santiago;UK;nao informado;International;International
ae8b22dde3d800078fbd38f698358e3c272528a73baef9e3af61c44fb66c86ab;10025467;5;1;nao informado;nao informado;nao informado;nao informado;International;International
baf546761cce693361782ec4462218efe71d9c6734131cac2c58c36f31af291e;10024255;4;2;Division Of Pontiac Michigan;Pontiac;US;MI;Central;Domestic
c489f3b57693ab4e8c220a7db96a63414b4aefaea0e96d6b8a86c2215667c8a2;10016542;2;2;Greenville PDC #23;Greenville;US;SC;Southern;Domestic
e7ab7c67fc124dd6131d6c7a1249a4c4b5e9c3de787cf7737728de88c538eefd;10025246;0;1;515 Oak Point Highway;Winnepeg;CA;MB;Canada;International
cbee99544b8bf441c82d7c5eb4dfb62d957cf8206e8af93abcb434ee87d4b99d;10018352;5;1;nao informado;nao informado;nao informado;nao informado;International;International
23a15280672cb670e87b0ffa1922735a803763eae591e44df4b1f0e5756c8fc9;10009660;2;2;PO box 204658;Augusta;US;GA;Southern;Domestic
eec4e874e2bb65560da6b1064537a4baef6fa498f3e1a1a9f786cbae8b65942e;10006983;5;1;nao informado;nao informado;nao informado;nao informado;International;International
f6cb0ce261906e68031ad24805ebd62973886d52919606af419d0092df5a8e1b;10010923;5;1;231 Yangjae Dong;Seocho-GU;AU;nao informado;International;International
6a56852ecb5478a4909f94e68f883a5ab41a4c2b06befc67ca35ff2888fabd48;10025304;5;1;nao informado;nao informado;UK;nao informado;International;International
cf0c6acbbd6ee5ca3ebc87db64f4ced4f779757bc77ce9ec32cebf1b7f276eb5;10016858;1;2;6590 SW Fallbrook Place;Beaverton;US;OR;Western;Domestic
e8ed9a336be0b4e75a5f65d0cc18010c03af3fbe6db9e06d7aa9d2ad915514e3;10019617;2;2;2445 FM 2920;Spring;US;TX;Southern;Domestic
296bb74f38e4debfc5fb8130ea232a378e061abe9f521cd244f0e660049c6f24;10015956;5;1;nao informado;nao informado;nao informado;nao informado;International;International
fb5116580777395a6335aa82286b43401e8e7eb97b653eb8a5e98c7cd963ad9e;10025769;1;2;850 Commerce Street;Redding;US;CA;Western;Domestic
d0979e45acc5e5395569c356ee89a8e4712cdd67f84689e50d0e735769958ec2;10007566;4;2;2106 South Riverside Road;St Joseph;US;MO;Central;Domestic
669328bd05bb88efa76118a1b4f6bc890ac72b627748594afab26a3411e610d5;10016784;4;2;PO Box 129;Pocahontas;US;IA;Central;Domestic
555a38a10eca8a32514a6b10b2fd2c920313c2c262afc0f0ba596e8e2197cc79;10014043;5;1;Rinconada De La Floresta 1137;Guadalajara Jal Mexico;IR;nao informado;International;International
3d00781ee30046cd8f4cb11fa74e4d9c704e87a7179cfbba1592e3bae1ac49a2;10022166;5;1;nao informado;nao informado;nao informado;nao informado;International;International
26e6b1dd458835abd22fad3b5ca2fcf25c697d16a6f6cb1a54ff77fa2ca92e2c;10026438;5;1;nao informado;nao informado;nao informado;nao informado;International;International
15a299b4d160646e09656eb652806c6e89ef68b3a92503ec43d1bb5b1a73d16e;10007253;5;1;nao informado;nao informado;nao informado;nao informado;International;International
dd11f0ffd2341332b3dd767721b226e86cbfdcd1cbed67108add65278b1958a2;10012369;5;1;nao informado;nao informado;nao informado;nao informado;International;International
98b306fdac9eca46e911b167421a2b7eb9c1ffad29ffc43b4e4181d8ba695727;10004302;2;2;9555 Airline Highway;Baton Rouge;US;LA;Southern;Domestic
3dcdae5c64da3b7203f33a7d91a87d829de772630d4d7b99aa237fd9e9b90431;10009650;5;1;Plaza Venezuela 1413-1425;La Paz;UK;nao informado;International;International
478af234cf027570177dc09ff16558214eaa41fbc53cb68f1c03cd2c2091db1c;10000471;5;1;Al Thalia Street;Jeddah;AU;nao informado;International;International
a1e8abbed91c65eaba6648d23eb118e138354518276338325b94a02d8e152896;10010855;5;1;nao informado;nao informado;nao informado;nao informado;International;International
18d9ccd0dcfbe303a3cfa02f77e084f07e769b94aac669f57cecf0bc0a91857f;10022750;4;2;8300 Lane Drive;Watervliet;US;MI;Central;Domestic
63fe7068ada143688018bf0db8d2a2c55135203610cb12b52e3663903b48e2df;10002244;2;2;Spicer Clark - Hurth Off Highway Div;Statesville;US;NC;Southern;Domestic
131ef64db52dc87503bc532c8c840bee49a43694e4cd5ee0edba83f0c4e116ee;10012128;5;1;nao informado;nao informado;nao informado;nao informado;International;International
f81ea7accab60d333190bbae252daeef11418a05fef44fd93e38069050679942;10025269;4;2;Attention  Accounts Payable Department;Overland Park;US;KS;Central;Domestic
fe475c9e906557c825d90eb373d5cc93574d2d5edbb083facc4db78393b7f6bd;10020864;5;1;nao informado;nao informado;nao informado;nao informado;International;International
51d29beec7533057605256db23d85858e71955d2a9eff9e52a2433764e58d3c5;10012425;4;2;RR1 Box 9;Oslo;US;MN;Central;Domestic
d5156b9c0564ac42786fc7559fc395628d0fc91262b3a2d08036e9ed82bf0174;10009654;2;2;904 Billy Mitchell Boulevard;Brownsville;US;TX;Southern;Domestic
dccf2895cd58adeaff8c8cc307e1b976e7962f2f5dc3310c6ca02e0f63f08319;10019879;2;2;3564 Buford Highway;Duluth;US;GA;Southern;Domestic
b365fde4fd29361a330f0e44ed6f1ccef26abb06625dce9f7d2437078012916a;10002412;5;1;nao informado;nao informado;nao informado;nao informado;International;International
654c1879d4f8ec633d0a3394b3b64156d69cb704f31217f1c62d5d85a9795208;10011398;1;2;1942 W 11th Avenue;Eugene;US;OR;Western;Domestic
5ef8e3ff5cc8bcc03fcd66a6e60c3912db0692f2f2ffa5a7f3ded10edd9980d1;10019678;1;2;3248 Auburn Boulevard;Sacramento;US;CA;Western;Domestic
74c895c3cfb4ea331b4c8bd6b579899a4c7202858f72f528a93000d0ddd11e96;10021986;4;2;S&PD-Special Accounts Sales;Livonia;US;MI;Central;Domestic
daaf2eb554866d360b678219d4e54a858ae536f20d1b368a2a6b50b62c2145eb;10009156;4;2;DBA Badlands Off Road Park;Attica;US;IN;Central;Domestic
78902dcb4b94bb1a1430a3b7d5b47002747f8b7f3cd788adb389ac6442a0dfa0;10019664;4;2;PO BOX 8808;MOLINE;US;IL;Central;Domestic
683c191119d466ff123f4c6ef1e6024101e596d8a21f23f88ae401f9226f850e;10015783;3;2;Attention: Anna Markert;Philadelphia;US;PA;Northeast;Domestic
2bc507b66e9fac91e0ae24cdc325bca4204d1cc90ee31b40acb31f96f6b17c83;10002137;5;1;nao informado;nao informado;nao informado;nao informado;International;International
fa00ccea43b9d390cf0396abaa1333ce4008d64c4c53ec2d78cbe2e010568ade;10018623;2;2;17 Perry Road;Laurel;US;MS;Southern;Domestic
eeed4bf92534b4dad355ed15ffa0bcfd4b3484b5b6be8e29f3fb9bf5d60107d0;10013252;2;2;Dallas PDC #15;Irving;US;TX;Southern;Domestic
2c640d5aa31f4da2666cfea9529bb7598c1e0e8e2636cd436bce744734c6abb1;10011198;3;2;703 Waverly Street;Framingham;US;MA;Northeast;Domestic
2267da2cc7a6b34030c29a5116377daca6989bc444e55e5d3ed473e40fc0972e;10014059;5;1;nao informado;nao informado;nao informado;nao informado;International;International
c781e8c233095909bc17fc10da9fd59434b0cb3045a91f4897c52005402a1651;10009647;1;2;3248 Auburn Boulevard;Sacramento;US;CA;Western;Domestic
ad2ae048c423c47c033292492cd7778de577e9db73d00f032150ae587732d88e;10021977;4;2;Attention  Accounts Payable Department;Overland Park;US;KS;Central;Domestic
22b20d3d7c95cd47f7dc85f34db70d21367d4047649b073b9a005810ffeb67d2;10010935;4;2;877 1st Avenue NW;Sioux Center;US;IA;Central;Domestic
456140c2beba7b09261f24b46503f8b4f4eed612437f84326681ec47b04b59e7;10007457;5;1;nao informado;nao informado;nao informado;nao informado;International;International
6abf05666864a13651fc2839cc2c3b73886884112ef1732415679a78ba63a5b5;10021422;1;2;3251 East Imperial Highway;Brea;US;CA;Western;Domestic
8ea38d4f060b271d326a1c7a8ba351ea4991d50f95b68478fab5078069a0182c;10021936;2;2;7779 Dixie Highway;Louisville;US;KY;Southern;Domestic
defbdc9270b7dff9466c82746e8ee209a289e61537f3986404184a17a2e19818;10006916;5;1;nao informado;nao informado;nao informado;nao informado;International;International
3e2cac2a7a94ea5ef428076e552f354798989f7b50d3c19156555a5d07b09842;10021242;5;1;nao informado;nao informado;nao informado;nao informado;International;International
b99659b85baa71c881aed383f73d9ec43a202049f9ea901b23d526a232678ecb;10012157;5;1;nao informado;nao informado;nao informado;nao informado;International;International
dfc425932f145ef32799134a4ee1f7c41afb20ee622f80415e4964b0a5c86d07;10025051;1;2;1301 East 64th Avenue;Anchorage;US;AK;Western;Domestic
f8b2759c8fbd6d418ca42b6768ca6c696198092f13a4e5e455d4657692dd2ea3;10026055;4;2;5100 Highway 93 South;Eau Claire;US;WI;Central;Domestic
8d39afc9282d66c3187994591d15b794347559293364c9256314e1217e064c93;10023783;2;2;PO Box 7647;Pine Bluff;US;AR;Southern;Domestic
0426ac35902180025c2bf80f5b3d6837af62c771978ff376e60b877c06b2bff8;10007577;3;2;2621 State Route 57;Stewartsville;US;NJ;Northeast;Domestic
8fe446221dde230bc4907d35eff99a9ddaee310ae4b363318d8a8fd3989d0652;10021111;5;1;nao informado;nao informado;nao informado;nao informado;International;International
44d6d36ff2242fcdb50cd476257ea387cf43a4536c6be85ef13c7ae60b08edf8;10009656;1;2;PO Box 450;Trinity Center;US;CA;Western;Domestic
0776914113729beda7984715f2969d723a33eab7d0c8c0169e550db6c61825cd;10021668;4;2;13208 East 40 Highway;Independence;US;MO;Central;Domestic
5014b6ba0f3ea513679108c2ad103e256f6a5fbe8919e8604e286c412fb48124;10026532;4;2;500 Highway 18 West;Garner;US;IA;Central;Domestic
e7c7322468b6b52a4a8e7defd4733ebc858f684672fd6d06a0bba6684e038940;10015824;4;2;PO Box 7005;South Bend;US;IN;Central;Domestic
e28ac81be830303a9fd3157cb4170e9320bf3eb36f19222c0c52b0fcbdc4361b;10014739;2;2;Division of Parkhurst;Tulsa;US;OK;Southern;Domestic
8f8f1bbaf4f3dc94051d97915e1715c7b1ab015b71716ace55412a0ea9ece3de;10018868;5;1;PO Box 871 Safat;nao informado;AU;nao informado;International;International
9ff21b2f640071e213d0c20f178108a9f5329bf527087753fda474edccb28168;10020306;5;1;nao informado;nao informado;nao informado;nao informado;International;International
1f5f6263003eac15d37ee8eeb2e18e662e6385beddd57ef7e44deb4bd83a7672;10020390;4;2;16241 South Us 27;Lansing;US;MI;Central;Domestic
291a6115a49a70f3ef9ae5da8706909bca47c0fc32563fee9c1a133a4cde15a1;10023793;2;2;PO Box 249;Holden;US;LA;Southern;Domestic
1263099df181b509f5ce793c478545ca17af5d706e611e7f0ea77a914898f29e;10020247;5;1;nao informado;nao informado;nao informado;nao informado;International;International
aa972b39432ba20045d3ecdff39b8b4eebca91582f28456cccb55c48a6b15c21;10013765;4;2;5821 Hampton Avenue;St Louis;US;MO;Central;Domestic
f365329be9b2cbca9b7ebdb0b9c3affb672c1697b88f9431b32efafdf0c14bcc;10020266;5;1;nao informado;nao informado;nao informado;nao informado;International;International
7c71602ebd377d4cf67843c95b4066ab620f45ddc6c1a95ed375c6b1faeb4bba;10009606;5;1;PO Box 105;Kilsyth;UK;nao informado;International;International
5e56426e96b6ec7b18cf6e0a1026647766daa3c409b254930be638cfb45cdca4;10011623;5;1;nao informado;nao informado;nao informado;nao informado;International;International
1bf9285aa4de890cc1049fcc009dd2046536220ef3ca0947472ccade24cd907a;10025024;5;1;nao informado;nao informado;nao informado;nao informado;International;International
99ac4133b398612475305ac7236c651c437afbaacf448c565ac61ff82c4d3dde;10021411;5;1;nao informado;nao informado;nao informado;nao informado;International;International
d5dc47e82888adbefd23239dee5aa423d891e3f9ed3042190ad1d4afb6ec0b05;10020909;4;2;Attention: Accounts Payable Department;Canton;US;OH;Central;Domestic
a529cebf9416636450d5b4c6afdbee2d94e34ee44fda067f51137d6d74a4eb07;10020448;0;1;1155 Mackay Street;Regina;CA;SK;Canada;International
64ebe9e168dd803d859e852687f29652e6517ac0c59a0b72389002c2965451a2;10011093;5;1;nao informado;nao informado;nao informado;nao informado;International;International
c350fa3cdab84d5b6e26b4eb38784a23b6f18c5f3936db5c0fbc1d16ae14f433;10007355;2;2;3601 Amarillo Boulevard East;Amarillo;US;TX;Southern;Domestic
e060759332f971e84cef514028f85f43d719533177244a3f524098bc15cd481a;10025249;2;2;7221 Highway 64;Memphis;US;TN;Southern;Domestic
9e0970eb38ca36cf987b053b68ad080894abddf237b68dacc909e1601b193b4d;10014540;5;1;Avda Bdo O'Higgins;1980 Santiago;UK;nao informado;International;International
eb30a475a44bd14217e3f79f9e5c048441f5c9ff6d6652ba40988c10a89b8353;10013870;5;1;nao informado;nao informado;nao informado;nao informado;International;International
fb822bd011295aeec0619b0783c1f29ce0834c46281fa0d80fa81325e3fd0547;10024499;2;2;8302 Jet Pilot;Houston;US;TX;Southern;Domestic
978810fbf2a823cbbb15f6fe9f495bf608d979eb723cb83a4cdfb9298dfde19e;10018885;1;2;128 So. 2nd Avenue;Pocatello;US;ID;Western;Domestic
7c5971d939a6d8ae69cce8628812c15305771252153678ad699d34f0e38aee6b;10008602;3;2;209 Sanford Road (Route 109);Wells;US;ME;Northeast;Domestic
caa54365bb5865a5865a44190d092eb3f77b1488dd287b5583e2f15fea7296bd;10005099;5;1;nao informado;nao informado;nao informado;nao informado;International;International
89dddd4acb829e600ce8988df02bb1fe17a7906df9ce7f26f78fe22b85371591;10007309;5;1;Limited Reg Number 28388;nao informado;UK;nao informado;International;International
26469bce233c8637243a094a894c038bd14d9b218f85b548b245c4db0ed136b1;10000480;1;2;Attention: Accounts Payable;Phoenix;US;AZ;Western;Domestic
e4658391eb3aee225a0cb6dab198f5777036f975f35c7983706369586a05b049;10026291;4;2;1880 N Westwood;Poplar Bluff;US;MO;Central;Domestic
b4a730375b857d06c8a97b3d25eb4e0fbc6e46381702d52491dc4649abfeaede;10018665;3;2;1028 Saunders Lane;Wester Chester;US;PA;Northeast;Domestic
5e6edefea47ae9d377a2bdde9cb11dba4ab5b8b8d0bbd1d341e01caeda5b3af0;10013079;5;1;nao informado;nao informado;nao informado;nao informado;International;International
4e064466c5f31eb5b134fd6aa6a75ede7ee1152f28e1d616bd62e18126e6633c;10005810;5;1;nao informado;nao informado;nao informado;nao informado;International;International
46b72dbd10eab85449e61ec15e147143aef79f1a0e511f773fb2f19b60a1443b;10021231;4;2;PO Box 460;Middlebury;US;IN;Central;Domestic
2714b2f993c96d9c9c81fbd46737c6e9d629708af8ac9a5ab5b74ff78e620315;10002220;0;1;1594 Nicholson Street;Prince George;CA;BC;Canada;International
e956ab3d8d60aa5ff65d16ea5cf8e810ebbbc4449c06a8c5d938d617b955f05c;10021283;5;1;nao informado;nao informado;nao informado;nao informado;International;International
887aa35966d4a891c06022c140c8ef634de2aec4003d2b3f25722419f8753c93;10002128;5;1;nao informado;nao informado;nao informado;nao informado;International;International
e5bdadc63fb537f34cbcc5d477ed95680d3c8bc1a118931cb58c02b65f96e083;10024550;4;2;PO Box 2017;Appleton;US;WI;Central;Domestic
d83e0b2d9c546c4e4365d0b121a2e75872798fce996a40ad4616911f990ae7fe;10005688;5;1;nao informado;nao informado;nao informado;nao informado;International;International
ca8d0341ca871a9d6c266ea61e51333a74999e9cf3d062add1b124221eea4b5c;10021804;5;1;nao informado;nao informado;nao informado;nao informado;International;International
553c0812d06cb168a83f3ccfe2f874af2b63650df13730b86f580d2d8fc19287;10021203;1;2;Los Angeles PDC #14;Costa Mesa;US;CA;Western;Domestic
dec901e4fd70de99590ebc16f3481a07fd018b1f3e846c964a9c93cdf5d3f718;10015793;1;2;3248 Auburn Boulevard;Sacramento;US;CA;Western;Domestic
19c55d0435bf5a6e5f08057378c24067c98ce03bb6019df8993651d28a73c80c;10000453;5;1;nao informado;nao informado;UK;nao informado;International;International
ac0f06d869de6d23b0e24bef969e71631a208d41c3c78075be509153d79be145;10019942;4;2;299 East Country Road 300 South;New Castle;US;IN;Central;Domestic
2b5038af7037f20eae6a7bd99d6c126e78b45b4685e04aabf075f49395f605fe;10023447;2;2;Attention:  Accounts Payable;Tulsa;US;OK;Southern;Domestic
7e0fdfd887e71c8cbd63d69a6620dfd971b7a8fb385d0ba08b172cc44ba852c0;10019913;0;1;10901 Macleod Trail South;Calgary;CA;AB;Canada;International
ee892088226094fec664a56050764f59f77e58a9d4d930beafc64b9d6c2572c2;10027082;0;1;9111 41 Avenue;Edmonton;CA;AB;Canada;International
d77149bbb9743ce34a95ed70a84fc24e95079d75d80b184411a265cadff01a64;10018146;0;1;Box 1178;Fort Macleod;CA;AB;Canada;International
cc059c93a1b058ea953c5d17cd6d97e75a6b6947ea795f82af7ab1da2cae6351;10023495;5;1;nao informado;nao informado;nao informado;nao informado;International;International
c169929434185b52f2b0cccf16c6d326450b61410a6411479566cae969c32c4b;10022434;1;2;PO Box 958;Placentia;US;CA;Western;Domestic
df3001529fddacb5ec2f40daca8db16d17190cba8d52d51c1a1f39d06c838ebc;10023003;4;2;400 Jay Street;Coldwater;US;MI;Central;Domestic
05d7ae222f66f5874bb006c8677ea4a6d59aaf4da4547f0f2c6dbc83161bde7a;10019682;4;2;PO Box 409;Lennox;US;SD;Central;Domestic
fd645cb9191d6ad04fce7574f1d113f1c8eaeafc8f01ac99ffda996131f3d337;10026062;2;2;2301 Central Parkway;Houston;US;TX;Southern;Domestic
c72074abfef3fb8052e5f68103abfd5e08e95c0ea3c83a6aa21ffd35556d8650;10009633;5;1;nao informado;nao informado;UK;nao informado;International;International
d644beac21da3a52519106f0bf02296525b8cf86d27df4aaf32c7057836ec9f1;10025296;4;2;666  South Thompson Road;Sun Prairie;US;WI;Central;Domestic
fa60f921eb40d12e1d627ee8a24bd229b0706edb902bb4af12c32627c75b6ef2;10024915;5;1;nao informado;nao informado;nao informado;nao informado;International;International
4b799648b027c8f96aaab857110c7b22d41f03e2fae3e037136ff19e1cf60c69;10020849;5;1;nao informado;nao informado;nao informado;nao informado;International;International
9f3e3b716bb63a0460a6803b971ad3b4924fadd58267d404ae1c3cc5ee9d5d1a;10009863;5;1;PO Box 065;Beijing 100088;UK;nao informado;International;International
0797d437520ab0977b665b874a7d3b82ce4800ba374f0cb9af149cf128c2a012;10019194;5;1;nao informado;nao informado;nao informado;nao informado;International;International
a30e65eaeacfc36e0b026089c4324aae8bb3cd1d1c9407353a5df00273d752ee;10002153;5;1;nao informado;nao informado;nao informado;nao informado;International;International
ca510769a0ca5ea1a4d322dd8efc37500122cf4fc18d3939f0b3f533fdee2ca3;10023516;2;2;2900 Northwest 73rd Street;Miami;US;FL;Southern;Domestic
17d89d76e243d9e160a264089c07383f0bd8d0d50d6a82ccee793622eb067c44;10007117;5;1;8F No.19 Chang Chun Road;Taipei;AU;nao informado;International;International
e49de336c5dd57b0d187e8383fa4081d10ca50d1ee382dd575ce4b0dabb30de5;10020492;5;1;nao informado;nao informado;nao informado;nao informado;International;International
